Company Name,,Operating as,Phone,Website,Region,Country,City,State/Province,Street address,Plant details,Number of Lines,Joint Venture Partner,,,,,,,,,,,,,
AGC (Asahi Glass Co.),,,32 2 4093-000,http://www.agc-glass.eu/,Europe,Belgium,Moustier,,"167, rue de la Glacerie",,3,,,,,,,,,,,,,,
AGC (Asahi Glass Co.),,,,http://www.agc-glass.eu/,Europe,Belgium,Mol,,Colburnlei 1 2400,,1,,,,,,,,,,,,,,
AGC (Asahi Glass Co.),,,55 12 3127-7100,http://www.agcbrasil.com/AGC-Brazil/English/Homepage/Home/page.aspx/1957,South America,Brazil,Guaratinguetea,Sao Paulo,"Estrada Municipal Fazenda Sao Pedro, 500 Jardim Vista Alegre",,1,,,,,,,,,,,,,,
AGC (Asahi Glass Co.),,AGC Flat Glass (Dalian) Co. Ltd.,86 411 8761-4190,http://www.agc-flatglass.cn/,Asia,China,Dalian,Liaoning,,,1,,,,,,,,,,,,,,
AGC (Asahi Glass Co.),,,86 512 6285-2501,http://www.agc-group.com/index.html,Asia,China,Suzhou,Jiangsu,Suzhou Industrial Park,,1,,,,,,,,,,,,,,
AGC (Asahi Glass Co.),,,420 4 1750-1111,http://www.agc-group.com/index.html,Europe,Czech Republic,Teplice,,"Sklarska 450, 415 03",,3,,,,,,,,,,,,,,
AGC (Asahi Glass Co.),,,33 3 2769-4000,http://www.agc-group.com/index.html,Europe,France,Boussois,,,,2,,,,,,,,,,,,,,
AGC (Asahi Glass Co.),,AGC Interpane Glass France S.A.S,33 3 8700-2690,http://www.interpane.com/,,France,Seingbouse,,"Megazone de Est Parc d'activites de Farebersviller, 57455",,1,Interpane,,,,,,,,,,,,,
AGC (Asahi Glass Co.),,AGC-Interpane,49 3 9205-4500,http://www.f-glass.de/cms/,Europe,Germany,Osterweddingen,,,,1,Interpane,,,,,,,,,,,,,
AGC (Asahi Glass Co.),,Asahi India Glass,91 22 6656-8700,http://www.aisglass.com/,Asia,India,Taloja Navi (Mumbai),Maharashtra,"305, Platinum Techno Park, Bhagwan Mahaveer Rd, Sector 30, Vashi",,1,Labroo family and Maruti Suzuki India Limited,,,,,,,,,,,,,
AGC (Asahi Glass Co.),,Asahi India Glass,none,http://www.aisglass.com/,Asia,India,Roorkee Haridwar (New Delhi),Uttarakhand,"Plot A, B & B1, AIS Industrial Estate, Village Latherdeva Hoon, Mangular PO: Tehsil-Roorkee, District 247 667, Manglour-Jhabrera Rd, Jhabrera",,1,Labroo family and Maruti Suzuki India Limited,,,,,,,,,,,,,
AGC (Asahi Glass Co.),,PT Asahimas Flat Glass,62 2 1690-4041,http://www.amfg.co.id/,Asia,Indonesia,Jakarta,,"Jalan, Ancol IX/5, Ancol Barat",,2,PT Rodamas Co. Ltd.,,,,,,,,,,,,,
AGC (Asahi Glass Co.),,PT Asahimas Flat Glass,62 3 1788-2383,http://www.amfg.co.id/,Asia,Indonesia,Surabaya,Jawa Timur,"JL. Desa Tanjung Sari No.61257, Taman, Sidoarjo",,2,PT Rodamas Co. Ltd.,,,,,,,,,,,,,
AGC (Asahi Glass Co.),,,39 0171-3401,http://www.agc-group.com/index.html,Europe,Italy,Cuneo,,Via Genova 31 12100,"Cold repair has ended, and the line is operational. https://glassmagazine.com/news-item/commercial/agc-flat-glass-italia-starts-float-line-cuneo-plant-1717232",1,,,,,,,,,,,,,,
AGC (Asahi Glass Co.),,,81 03 3218-5603,http://www.asahi-glass.com/english/index.html,Asia,Japan,Kashima,Ibaraki,,,1,,,,,,,,,,,,,,
AGC (Asahi Glass Co.),,,81 03 3218-5603,http://www.asahi-glass.com/english/index.html,Asia,Japan,Taketoyo,Aichi,,,2,,,,,,,,,,,,,,
AGC (Asahi Glass Co.),,,31 3 4467-9911,http://www.agc-group.com/index.html,Europe,Netherlands,Tiel,,,,1,,,,,,,,,,,,,,
AGC (Asahi Glass Co.),,,8 83 1220-0207,http://www.agc-glass.eu/,Europe,Russia,Bor,Nizhny Novgorod Oblast,,,2,,,,,,,,,,,,,,
AGC (Asahi Glass Co.),,,791 8555-3437,http://www.agc-glass.eu/,Europe,Russia,Klin,Moscow Oblast,,,2,,,,,,,,,,,,,,
AGC (Asahi Glass Co.),,,34 9 3467-0760,http://www.agc-group.com/index.html,Europe,Spain,Sagunto,Valencia,,,1,,,,,,,,,,,,,,
AGC (Asahi Glass Co.),,,66 038 2130-6372,https://www.agc-flatglass.co.th/home.php,Asia,Thailand,Nong Mai Daeng,Chon Buri,,,1,,,,,,,,,,,,,,
AGC (Asahi Glass Co.),,,66 0 2815-5000,https://www.agc-flatglass.co.th/home.php,Asia,Thailand,Phra Samut Chedi,Samut Prakan,"200 Moo1 Suksawas Rd., Pak Khlong Bang Pla Kod",,1,,,,,,,,,,,,,,
AGC (Asahi Glass Co.),,,859-625-9002,http://us.agc.com/,North America,US,Richmond,KY,201 Duncannon Lane,,1,,,,,,,,,,,,,,
AGC (Asahi Glass Co.),,,913-592-6100,http://us.agc.com/,North America,US,Spring Hill,KS,20400 N. Webster St.,,1,,,,,,,,,,,,,,
AGC (Asahi Glass Co.),,,423-357-2400,http://us.agc.com/,North America,US,Greenland,TN,AGC Road Hwy 11,AGC has started installing its MSVD coater. https://glassmagazine.com/news-item/commercial/agc-glass-install-new-coater-north-america-1716652,2,,,,,,,,,,,,,,
Aoge,,Qinhuangdao Aoge Glass Co.,86 33 5850-1222,http://aoge-glass.company.weiku.com/,Asia,China,Qinhuangdao,Hebei,,,2,,,,,,,,,,,,,,
Arabian United Float Glass Company (UFG),,,966 1 4325-5444,http://aufgc.com/home.aspx,Middle East,Saudi Arabia,Yanbu,,,,0,,,,,,,,,,,,,,
Ardakan Float Glass Company,,,98 352 7243-2014,http://www.ardakanglass.com,Middle East,Iran,Ardakan,Yazd,,,1,,,,,,,,,,,,,,
AVIC Sanxin Glass,,,86 755 2606-3626,http://avic-glass.com/profile/hainan-production-base.html/137931/0,Asia,China,Haikou,Hainan,,,4,,,,,,,,,,,,,,
Azar Glass Industry Company,,Sahand Industrial Group,98 41 3244-7023,http://www.sig.co.ir/index.php/en/sahand-industrial-group/sub-companies,Middle East,Iran,Tabriz,,,,1,,,,,,,,,,,,,,
Bangkok Glass Public Co.,,BGF Kabinburi Glass,+(66) 02834-7000,http://www.bgiglass.com/?r=Site/Index,Asia,Thailand,Bangkok,,"47/1 Moo 2, Rangsit-Nakornnayok Rd., Km.7 Buengyeetho,",,1,,,,,,,,,,,,,,
Cardinal Glass Industries,,,715-232-6500,http://www.cardinalcorp.com/,North America,US,Menomonie,WI,2200 Stokke Parkway,,1,,,,,,,,,,,,,,
Cardinal Glass Industries,,,608-742-1966,http://www.cardinalcorp.com/,North America,US,Portage,WI,1650 Mohr Road,,1,,,,,,,,,,,,,,
Cardinal Glass Industries,,,704-660-0900,http://www.cardinalcorp.com/,North America,US,Mooresville,NC,342 Mooresville Blvd.,,1,,,,,,,,,,,,,,
Cardinal Glass Industries,,,580-924-2142,http://www.cardinalcorp.com/,North America,US,Durant,OK,515 Cardinal Pkwy,"Plant was repaired in Q1 2017 and is back up with added capacity, according to company officials.",1,,,,,,,,,,,,,,
Cardinal Glass Industries,,,360-242-4300,http://www.cardinalcorp.com/,North America,US,Winlock,WA,545 Avery Road W.,,1,,,,,,,,,,,,,,
Carlex Glass Company,,,615-350-7500,http://www.carlex.com/index.php,North America,US,Nashville,TN,7200 Centennial Blvd.,,1,,,,,,,,,,,,,,
Caspian Flat Glass OJSC,,,,http://www.hornglass.com/en/,Asia,Russia,Kumtorkalinsky,Dagestan Republic,,,1,,,,,,,,,,,,,,
Central Glass Co. Ltd.,,,81 5 9853-3131,http://www.cgc-jp.com/,Asia,Japan,Matsusaka,Mie,1521-2 Okuchicho,,2,,,,,,,,,,,,,,
Central Glass Co. Ltd.,,,81 7 2221-3541,http://www.cgc-jp.com/http://www.cgc-jp.com/,Asia,Japan,Sakai City,Osaka,6 Chikko-Minamimachi,,1,,,,,,,,,,,,,,
Central Glass Co. Ltd.,,,81 8 3622-5111,http://www.cgc-jp.com/http://www.cgc-jp.com/,Asia,Japan,Ube City,Yamaguchi,"5253 Okiube, Ube City, Yamaguchi 755-0001",,1,,,,,,,,,,,,,,
China Dalian Kanglida Yaohua Glass Corp.,,,+(86)4118-2500-181,http://glassofcn.com,Asia,China,Dalian,,"A3909, 27 Mingze Street",China Dalian reports 3 float lines. The precise locations of the lines have yet to be confirmed.,3,,,,,,,,,,,,,,
China Glass Holdings,,,05 15 8503-0068,http://www.chinaglassholdings.com/en/index.aspx,Asia,China,Dongtai,Jiangsu,,"As of 2018, Nippon Sheet Glass reduced shareholding in its joint ventures in China, according to company officials.",1,NSG,,,,,,,,,,,,,
China Glass Holdings Ltd. (CNG),,,86 0527 8421-2875,http://www.chinaglassholdings.com/en/index.aspx,Asia,CN,Suqian,Jiangsu,,"As of 2018, Nippon Sheet Glass reduced shareholding in its joint ventures in China, according to company officials.
",3,Nippon Sheet Glass,,,,,,,,,,,,,
China Glass Holdings Ltd. (CNG),,,86 063 1592-1731,http://www.chinaglassholdings.com/en/index.aspx,Asia,CN,Weihai,Shandong,,"As of 2018, Nippon Sheet Glass reduced shareholding in its joint ventures in China, according to company officials.
",1,Nippon Sheet Glass,,,,,,,,,,,,,
China Glass Holdings Ltd. (CNG),,,86 029 3286-5086,http://www.chinaglassholdings.com/en/index.aspx,Asia,CN,Xianyang,Shaanxi,,"As of 2018, Nippon Sheet Glass reduced shareholding in its joint ventures in China, according to company officials.
",2,Nippon Sheet Glass,,,,,,,,,,,,,
China Glass Holdings Ltd. (CNG),,,86 047 3209-3050,http://www.chinaglassholdings.com/en/index.aspx,Asia,CN,Wuhai,Inner Mongolia,,"As of 2018, Nippon Sheet Glass reduced shareholding in its joint ventures in China, according to company officials.
",2,Nippon Sheet Glass,,,,,,,,,,,,,
Chu Lai Float Glass,,,84 51 0224-0288,http://www.cfg.com.vn/lang-en/home.html,Asia,Vietnam,Nui Thanh,Quang Nam,,,1,,,,,,,,,,,,,,
CSG Holding Ltd.,,Chengdu CSG Glass Co. Ltd.,86 028 8568-9888,http://www.csgholding.com/en/firm/qiye.asp?ListId=1203,Asia,China,Shuangliu Chengdu,Sichuan,"No.16, Huanglong Avenue, Gongxing Town",,3,,,,,,,,,,,,,,
CSG Holding Ltd.,,Hebei CSG Glass Co. Ltd,86 31 6569-8666,http://www.csgholding.com/en/firm/qiye.asp?ListId=1204,Asia,China,Yongqing Langfang,Hebei,,,2,,,,,,,,,,,,,,
CSG Holding Ltd.,,Wujiang CSG Glass Co. Ltd.,86 512 6319-3333,http://www.csgholding.com/en/firm/qiye.asp?ListId=1439,Asia,China,Wujiang Suzhou,Jiangsu,,,2,,,,,,,,,,,,,,
CSG Holding Ltd.,,Xianning CSG Glass Co. Ltd.,86 71 5889-0888,http://www.csgholding.com/en/firm/qiye.asp?ListId=1516,Asia,China,Xianning,Hubei,,,2,,,,,,,,,,,,,,
Dezhou Jinghua Group Zhenhua Co. Ltd.,,,86 53 4261-2369,http://dzjhglass.en.china.cn/,Asia,China,Dezhou,Shandong,,,2,,,,,,,,,,,,,,
Duzce Cam,,,+90 380 552 60 07,http://duzcecam.com.tr/,Asia,Turkey,Duzce,,2.Organize Sanayi Bölgesi Cumhuriyet Mah. 1.Cd. No:2 81000 Beyköy/Düzce,A second float line is under construction.,2,,,,,,,,,,,,,,
Emirates Float Glass (Dubai Investments),,,971 2599-4000,http://efgme.com,Middle East,United Arab Emirates,Abu Dhabi,,353MR2-ICAD-2 Musaffah,,1,,,,,,,,,,,,,,
Euroglas (Glas Trosch Group),,,33 3898-3350,http://www.euroglas.com/en/euroglas.html,Europe,France,Hombourg,,,,1,,,,,,,,,,,,,,
Euroglas (Glas Trosch Group),,,49 3904-6380,http://www.euroglas.com/en/euroglas.html,Europe,Germany,Haldensleben,,Dammuhlenweg 60 D 39340,,1,,,,,,,,,,,,,,
Euroglas (Glas Trosch Group),,,49 3904-6380,http://www.euroglas.com/en/euroglas.html,Europe,Germany,Osterweddingen,,,,1,,,,,,,,,,,,,,
Euroglas (Glas Trosch Group),,,48 4 4719-4000,http://www.euroglas.com/en/euroglas.html,Europe,Poland,Ujazad,,Osiedle Niewiadow 65,,2,,,,,,,,,,,,,,
F | glass,,,+49 39205 4500,https://www.fglass.de,Europe,Germany,Osterweddingen,Saxe-Anhalt,Appendorfer Weg 5,"The factory in Osterweddingen near Magdeburg (Saxony-Anhalt), which began operations in 2009 – one of the world's most modern float glass plants – produces f | glass GmbH's flat glass, which is then coated and toughened as per the customers' requirements.",1,AGC-INTERPANE,39171,,,,,,,,,,,,
Farun Group,,,86 512 5855-0960,http://chinaglassweb.com/encom/default_2705.html,Asia,China,Zhangjiagang Suzhou,Jiangsu,,,9,,,,,,,,,,,,,,
Farun Group,,,86 75 0203-6448,http://farun.gmc.globalmarket.com/,Asia,China,Jiangmen,Guangdong,,,2,,,,,,,,,,,,,,
Farun Group,,,86 411 8802-1290,http://chinaglassweb.com/encom/default_2705.html,Asia,China,Dalian,Liaoning,,,1,,,,,,,,,,,,,,
Freddy Industries Corp.,,,+(86)5328-5625-601,http://freddyglass.com,Asia,China,Qingdao,,No. 137 NingXia Road,Freddy Industries reports 2 float lines. The precise locations of the lines have yet to be confirmed.,2,,,,,,,,,,,,,,
Fuyao Glass Industry Group Co. Ltd.,,,86 47 5842-4338,http://www.fuyaogroup.com/en/about.php?network,Asia,China,Tongliao,Inner Mongolia,,,2,,,,,,,,,,,,,,
Fuyao Glass Industry Group Co. Ltd.,,,86 591 8538-3777,http://www.fuyaogroup.com/en/about.php?network,Asia,China,Fuqing,Fujian,,,2,,,,,,,,,,,,,,
Fuyao Glass Industry Group Co. Ltd.,,,,http://www.fuyaogroup.com/en/about.php?network,Asia,China,Shuangliao,Jilin,,,2,,,,,,,,,,,,,,
Fuyao Glass Industry Group Co. Ltd.,,,86 47 5842-4338,http://www.fuyaogroup.com/en/about.php?network,Asia,China,Chongqing,,,,2,,,,,,,,,,,,,,
Fuyao Glass Industry Group Co. Ltd.,,,86 89 8674-8557-7,http://www.fuyaogroup.com/en/about.php?network,Asia,China,Laocheng,Hainan,,,3,,,,,,,,,,,,,,
Fuyao Glass Industry Group Co. Ltd.,,Fuyao North America,217-864-2392,http://www.fuyaona.com/,North America,US,Mt. Zion,IL,2768 E Elwin Rd.,,2,,,,,,,,,,,,,,
G-Crystal,,,+(86)1356-1686-841,http://www.cnggg.cn/index.php?lang=en,Asia,China,Zibo,Shandong,Zibo High and New Technology Development,G-Crystal reports 13 float lines. The precise locations of the lines have yet to be confirmed.,13,,,,,,,,,,,,,,
Gold Plus Glass Industry Ltd.,,,9.20E+11,http://goldplusgroup.com/index.html,Asia,India,Rorkee,Uttarakhand,"Roorkee Laksar Road, Khempur, Uttarakhand, India",,1,,,,,,,,,,,,,,
Guardian Glass,,,55 24 3355-9000,http://www.guardianbrasil.com.br/,Europe,Brazil,Porto Real,Rio de Janeiro,,,1,,,,,,,,,,,,,,
Guardian Glass,,,55 15 3205-6000,http://www.guardianbrasil.com.br/,Europe,Brazil,Tatui,Sao Paulo,,,1,,,,,,,,,,,,,,
Guardian Glass,,Egyptian Glass Company,20 1541-0464,https://www.guardian.com/,,Egypt,Tenth of Ramadan City,,,,1,,,,,,,,,,,,,,
Guardian Glass,,,49 34 9436-1500,https://www.guardian.com/,Europe,Germany,Thalheim,,"Guardianstrasse I, D-06766",,1,,,,,,,,,,,,,,
Guardian Glass,,,36 6888-7200,https://www.guardian.com/,Europe,Hungary,Oroshaza,,,,1,,,,,,,,,,,,,,
Guardian Glass,,,91 26 4327-5106,https://www.guardian.com/,Asia,India,Kondh,Gujarat ,,,1,Modi Rubber Limited,,,,,,,,,,,,,
Guardian Glass,,,none,https://www.guardian.com/,Europe,Luxembourg,Bascharage,,,,1,,,,,,,,,,,,,,
Guardian Glass,,,352 52-1111,https://www.guardian.com/,Europe,Luxembourg,Dudelange,,"Zone Industrielle Wolser, 3452",,1,,,,,,,,,,,,,,
Guardian Glass,,,52 44 2278-1700,http://www.guardianmexico.com.mx/,North America,Mexico,El Marques,Queretaro,,,1,,,,,,,,,,,,,,
Guardian Glass,,,48 3 4323-9200,http://www.guardian-czestochowa.com/,Europe,Poland,Czestochowa,,"Guardian Industries Poland Sp.z.o.o., ul. W.Korfantego 31/35",,1,,,,,,,,,,,,,,
Guardian Glass,,,7 49 1295-6600,http://www.guardian-russia.ru/ru/,Europe,Russia,Krasny Sulin,Krasny Sulin Rostov Oblast,,,1,,,,,,,,,,,,,,
Guardian Glass,,,7 49 1295-6600,http://www.guardian-russia.ru/ru/,Europe,Russia,Ryazan,,"Guardian Steklo Ryazan LLC, Ryazhskoe shosse D4",,1,,,,,,,,,,,,,,
Guardian Glass,,GulfGuard,966 3358-8888,http://www.gulfguard.com/,Middle East,Saudi Arabia,Al-Jubail,,"PB No:11963, Rd 251",,1,"""Saudi Guardian International Float Glass Ltd., The National Company for Glass Industries (Zoujaj)""",,,,,,,,,,,,,
Guardian Glass,,,34 9 4671-9509,https://www.guardian.com/,Europe,Spain,Llodio,Araba,,,1,,,,,,,,,,,,,,
Guardian Glass,,,34 9 4881-7209,https://www.guardian.com/,Europe,Spain,Tudela,Navarre,Poligono Ind. Montes de Cierzo,,1,,,,,,,,,,,,,,
Guardian Glass,,,66 3637-3373,http://www.guardianthailand.com/,Asia,Thailand,Nong Khae Saraburi,,42 Moo 7 Nong Plamoh,,1,,,,,,,,,,,,,,
Guardian Glass,,,66 3889-2111,http://www.guardianthailand.com/,Asia,Thailand,Rayong,,"Guardian Industries Corp Ltd., 116 Moo 3, Tambon Nonglalok Amphur",,1,,,,,,,,,,,,,,
Guardian Glass,,,971 7205-8000,https://www.guardianglass.com/,Middle East,United Arab Emirates,Ras Al Khaimah,,,,1,The National Company for Glass Industries (Zoujaj),,,,,,,,,,,,,
Guardian Glass,,,44 14 0572-6800,https://www.guardian.com/,Europe,UK ,Goole,,"Guardian Industries, Rawcliffe Road",,1,,,,,,,,,,,,,,
Guardian Glass,,,559-896-6400,https://www.guardianglass.com/,North America,US,Kingsburg,CA,11535 E. Mountain View,,1,,,,,,,,,,,,,,
Guardian Glass,,,734-654-6264,https://www.guardianglass.com/,North America,US,Carleton,MI,14600 Romine Road,Guardian launched its new jumbo MSVD coater in October. https://glassmagazine.com/news-item/commercial/guardian-glass-celebrates-north-american-jumbo-coater-start-1818462,2,,,,,,,,,,,,,,
Guardian Glass,,,563-659-4000,https://www.guardianglass.com/,North America,US,DeWitt,IA,300 South 5th Avenue East,The plant is back online after suspending operations due to an explosion in June. The resulting damage from the event required a period of extended repair.,1,,,,,,,,,,,,,,
Guardian Glass,,,315-787-7000,https://www.guardianglass.com/,North America,US,Geneva,NY,50 Forge Avenue,,1,,,,,,,,,,,,,,
Guardian Glass,,,803-789-6100,https://www.guardianglass.com/,North America,US,Richburg,SC,610 L and C Distribution Park,,1,,,,,,,,,,,,,,
Guardian Glass,,,903-872-4871,https://www.guardianglass.com/,North America,US,Corsicana,TX,3801 S. Highway 287,,1,,,,,,,,,,,,,,
Guardian Glass (currently controlled by Venezuelan government),,,58 29 1300-5200,https://www.guardian.com/,South America,Venezuela,Maturin,,,,1,,,,,,,,,,,,,,
Hankuk Glass Industries Co. Ltd.,,,82 5 1720-4214,http://www.hanglas.co.kr/eng/01_company/company_di_01_01.asp,Asia,South Korea,Busan,,,,1,,,,,,,,,,,,,,
Hankuk Glass Industries Co. Ltd.,,Hanglas,82 63 460-4114,http://www.hanglas.co.kr/eng/01_company/company_di_01_01.asp,Asia,South Korea,Gunsan,,"77, Soryong-dong",,2,Saint-Gobain,,,,,,,,,,,,,
Hankuk Glass Industries Co. Ltd.,,Hanglas,82 63 460-4114,http://www.hanglas.co.kr/eng/01_company/company_di_01_01.asp,Asia,South Korea,Gunsan,,"77, Soryong-dong",,1,,,,,,,,,,,,,,
Hebei Yingxin Glass Group Co. Ltd.,,,86 031 9898-3297,http://en.yxbljt.com/about.html,Asia,China,Shahe City,Hebei,,,8,,,,,,,,,,,,,,
Henan Benyue Float Glass Co. Ltd.,,,86 39 1667-5789,http://hnbyjt.glass.com.cn/ [Chinese],Asia,China,Jiyuan,,,,0,,,,,,,,,,,,,,
Indevco Joint Stock Co.,,,7034424890,http://nga.org,Asia,Vietnam,Khanh Cu Industrial Zone,Ninh Bình,Khanh Cu Industrial Park,,1,,,,,,,,,,,,,,
Interglass,,,996 3 1232-3144,http://www.interglass.kg/en,Asia,Kyrgyzstan,Tokmok,,,,1,,,,,,,,,,,,,,
Intex Glass Xiamen Company Limited,,,86 59 2624-1669,http://www.intexglass.net/,Asia,China,Jimei Xiamen,Fujian,,,6,,,,,,,,,,,,,,
Jiangmen ISN Float Glass Co.,,,86 750 3792-1132-118,http://www.jisnglass.com.cn/newactionscript30/en/about.asp,Asia,China,Jianghai Jiangmen,Guangdong,,,2,Guangdong Jiangmen Float Glass Factory and Singapore ISN Co. Ltd.,,,,,,,,,,,,,
Jin Jing Group,,,86 053 3358-4605,http://en.cnggg.cn,Asia,China,Zibo,Shangdong,,,9,Saint-Gobain,,,,,,,,,,,,,
Kaveh Industry Group,,Asa Float Glass,98 218 4400,http://www.kavehglass.com/tabid/131/Default.aspx,Middle East,Iran,Maragheh,East Azerbaijan,,,1,,,,,,,,,,,,,,
Kaveh Industry Group,,Kavian Float Glass,98 218-4400,http://www.kavehglass.com/tabid/131/Default.aspx,Middle East,Iran,Mashhad,,,,1,,,,,,,,,,,,,,
Kaveh Industry Group,,Taban Glass,98 218-4400,http://www.kavehglass.com/tabid/131/Default.aspx,Middle East,Iran,Kaveh Industrial City Markazi,,,,1,,,,,,,,,,,,,,
Kaveh Industry Group,,Iran Float Glass,98 218-4400,http://www.kavehglass.com/tabid/131/Default.aspx,Middle East,Iran,Kaveh Industrial City Markazi,,,,1,,,,,,,,,,,,,,
Kaveh Industry Group,,First Glass,98 218-4400,http://www.kavehglass.com/tabid/131/Default.aspx,Middle East,Syria,Damascus,,Adra Industrial City,,1,,,,,,,,,,,,,,
Keumkang Korea,,,82 3 1880-3000,http://www.kccworld.co.kr/eng/,Asia,South Korea,Yeoju,Gyeonggi-do,,,7,,,,,,,,,,,,,,
Khawaja Flat Glass Industries (Pvt.) Limited,,,92 5 1556-4998,,Asia,Pakistan,Hassan Abdal,Punjab,,,1,,,,,,,,,,,,,,
Kibing Group,,Changxing Kibing Glass Co. Ltd.,86 65 6884-6401,http://kibinggroup.com/en/Subsidiaries.asp,Asia,China,Changxing,Zhejiang,,,4,,,,,,,,,,,,,,
Kibing Group,,Heyuan Kibing Silicon Co. Ltd.,86 65 6884-6401,http://kibinggroup.com/en/Subsidiaries.asp,Asia,China,Heyuan,Guangdong,,,2,,,,,,,,,,,,,,
Kibing Group,,Pinghu Kibing Glass Co. Ltd.,86 65 6884-6401,http://kibinggroup.com/en/Subsidiaries.asp,Asia,China,Pinghu,Zhejiang,,,2,,,,,,,,,,,,,,
Kibing Group,,Shaoxing Kibing Glass Co. Ltd.,86 65 6884-6401,http://kibinggroup.com/en/Subsidiaries.asp,Asia,China,Shaoxing,Zhejiang,,,2,,,,,,,,,,,,,,
Kibing Group,,Zhangzhou Kibing Glass Co. Ltd.,86 65 6884-6401,http://kibinggroup.com/en/Subsidiaries.asp,Asia,China,Fujian,Zhangzhou,,,8,,,,,,,,,,,,,,
Kibing Group,,Zhuzhou Liling Kibing Glass Co. Ltd.,86 65 6884-6401,http://kibinggroup.com/en/Subsidiaries.asp,Asia,China,Zhuzhou Liling,Hunan,,,3,,,,,,,,,,,,,,
Kibing Group Sdn. Bhd.,,,010-3617559,https://www.linkedin.com/company/kibing-group-m-sdn-bhd/,Asia,Malaysia,Seremban,Negeri Sembilan,,Existing plant ,0,,,,,,,,,,,,,,
Link Glass Co.,,,0086-21-54868552,http://link-glass.com,Asia,China,Shanghai,,"No. 1555, Caobao Road, Shanghai",Link Glass reports 3 float lines. The precise locations of the lines have yet to be confirmed.,3,,,,,,,,,,,,,,
Liya Glass,,,98 21 2225-6615-21,http://www.liyaglass.ir/en/about-us/Profile/view,Middle East,Iran,Qazvin,,,,1,,,,,,,,,,,,,,
Luoyang Glass Company Limited,,,86 039 8223-8199,http://www.zhglb.com/english/index.jsp,Asia,China,Luoyang City,Henan,,,9,,,,,,,,,,,,,,
Mediterranean Float Glass,,,213 2144-8644,http://www.cevital.com/en/mfg.html,Africa,Algeria,Algiers,,,,1,,,,,,,,,,,,,,
Mingda Glass Co.,,,86 27 8421-3003,,Asia,China,Wuhan,,,,2,,,,,,,,,,,,,,
Mingda Glass Co.,,,86 59 2622-3607,,Asia,China,Xiamen,Fujian,Jimei Qu,,0,,,,,,,,,,,,,,
Nanning Float Glass,,,86 77 1483-1152,,Asia,China,Nanning,Guangxi,,,2,,,,,,,,,,,,,,
Nasir Glass Industries Ltd. (NGIL),,,88 0 2882-0279,http://nasirgroup.com.bd/index.htm,Asia,Bangladesh,Sreepur,Gazipur,,,2,,,,,,,,,,,,,,
Ningbo Kangli Glass Co. Ltd.,,,86 574 8645-8830,http://www.nbklglass.com/en/index.html,Asia,China,Ningbo,Zhejiang,,,2,,,,,,,,,,,,,,
Nippon Sheet Glass,,Vidrieria Argentina S.A,411 4239-5000,http://www.vasa.com.ar/,South America,Argentina,Llavallol,Buenos Aires,Antartida Argentina 1360,,1,Saint-Gobain,,,,,,,,,,,,,
Nippon Sheet Glass,,Cebrace Cristal Plano Ltda,55 47 3446-7000,http://www.cebrace.com.br/,South America,Brazil,Barra Velha,Santa Catarina,,,1,Saint-Gobain,,,,,,,,,,,,,
Nippon Sheet Glass,,Cebrace Cristal Plano Ltda,55 12 3654-5000,http://www.cebrace.com.br/,South America,Brazil,Cacapava,Sao Paulo,,,1,Saint-Gobain,,,,,,,,,,,,,
Nippon Sheet Glass,,Cebrace Cristal Plano Ltda,55 12 3655-9000,http://www.cebrace.com.br/,South America,Brazil,Jacarei,Sao Paulo,,,3,Saint-Gobain,,,,,,,,,,,,,
Nippon Sheet Glass,,,56 4120-1101,http://www.nsg.com/en,South America,Chile,Concepcion,Bio Bio Region,,,1,Saint-Gobain,,,,,,,,,,,,,
Nippon Sheet Glass,,,57 1770-0777,http://www.nsg.com/en,South America,Colombia,Bogota,,,,1,Saint-Gobain,,,,,,,,,,,,,
Nippon Sheet Glass,,,49 0960-5180,http://www.nsg.com/en,Europe,Germany,Weiherhammer,,"Flachglasstrasse 3, 92729",,2,,,,,,,,,,,,,,
Nippon Sheet Glass,,,49 0 2043-4050,http://www.nsg.com/en,Europe,Germany,Gladbeck,,"Hegestrasse 360, 45966",,2,,,,,,,,,,,,,,
Nippon Sheet Glass,,,39 08 7354-8073,http://www.nsg.com/en,Europe,Italy,San Salvo,,"75, Viale Bellisario Marisa",,2,,,,,,,,,,,,,,
Nippon Sheet Glass,,,81 03 5443-9500,http://www.nsg.com/en,Asia,Japan,Ichihara,Chiba,6 Anesakikaigan,,2,,,,,,,,,,,,,,
Nippon Sheet Glass,,,81 03 5443-9500,http://www.nsg.com/en,Asia,Japan,Maizuru,Kyoto Prefecture,,,2,,,,,,,,,,,,,,
Nippon Sheet Glass,,,60 0 7251-0217,http://www.nsg.com/en,Asia,Malaysia,Johore Bahru,Johor,Jalan Keluli 3,,2,,,,,,,,,,,,,,
Nippon Sheet Glass,,,48 1 5832-3041,http://www.nsg.com/en,Europe,Poland,Sandomierz,,Portowa 24,,1,,,,,,,,,,,,,,
Nippon Sheet Glass,,,7 49 5980-5027,http://www.nsg.com/en,Europe,Russia,Moscow,,"Ramensky district, Moscow Region, 140125",,1,"Glasswall Capital, Rusnano and the European Bank for Reconstruction and Development",,,,,,,,,,,,,
Nippon Sheet Glass,,,44 01 7442-8882,http://www.nsg.com/en,Europe,United Kingdom,St. Helens,Merseyside,"Cowley Hill Works, Albert St, WA10 2RZ",,1,,,,,,,,,,,,,,
Nippon Sheet Glass,,,419-247-3201,http://www.nsg.com/en,North America,US,Rossford,OH,140 Dixie Highway,,2,,,,,,,,,,,,,,
Nippon Sheet Glass,,,910-276-5630,http://www.nsg.com/en,North America,US,Laurinburg,NC,13121 South Rocky Ford Road,,2,,,,,,,,,,,,,,
Nippon Sheet Glass,,,815-434-8048,http://www.nsg.com/en,North America,US,Ottawa,IL,300 20th Ave.,"The plant, which sustained damage due to a tornado in March 2017, resumed operations in December 2017. https://glassmagazine.com/news-item/commercial/nsgpilkington-reopen-ottawa-plant-month-1717314",1,,,,,,,,,,,,,,
Nippon Sheet Glass,,,84 2 4186-3701,http://www.nsg.com/en,Asia,Vietnam,Bac Ninh,,Phuong Lieu Bac,,1,,,,,,,,,,,,,,
Nippon Sheet Glass,,,84 8822-9156,http://www.nsg.com/en,Asia,Vietnam,Tan Thanh,Ba Ria-Vung Tau,My Xuan A IZ,"One line is operating, and one will be restarted in 2019, according to company officials.",2,,,,,,,,,,,,,,
Nippon Sheet Glass / Pilkington Italia,,Pilkington Italia,+(39)0415-3349-11,http://www.pilkington.com/en/global,Europe,Italy,Porto Marghera,,Via delle Industrie 46 Porto Marghera Venezia 30175,,1,,,,,,,,,,,,,,
Obeikan Float Glass,,,00966 5 5411-4487,http://www.obeikan.com.sa/glass-factory,Middle East,Saudi Arabia,Yanbu,,"Light Industrial Zone, Yanbu Al Sinaiyah",,1,,,,,,,,,,,,,,
Orient Industry Group Co. Ltd. (Orient Glass),,,86 532 6897-2626,http://www.orientin.com/about-us.asp,Asia,China,Huangdao,Shandong,,,2,,,,,,,,,,,,,,
PFG Building,,,01 1360-1000,http://www.pfg.co.za/,Africa,South Africa,Johannesburg,,"216 Industry Road, New Era Springs",,2,,,,,,,,,,,,,,
Phoenicia Flat Glass Industries,Line has ceased operations,,0 4641-0200,http://www.phoenicia-ltd.com/company-profile,Middle East,Israel,Nazareth Illit,,,,0,,,,,,,,,,,,,,
PHP Float Glass Industries,,,,http://demo.periscope-inc.com/PHPFamily/,Asia,Bangladesh,Chittagong,,,,1,,,,,,,,,,,,,,
PJSC Proletary,,,3806 4517-3638,"http://www.proletary.ua (Ukranian, for profile in English see   http://www.rada.com.ua/eng/catalog/17226/",Europe,Ukraine,Lysychansk,Lugansk,,,3,,,,,,,,,,,,,,
PT Muliaglass,,,62 2 1893-5728,http://www.muliaindustrindo.com/glass_float/,Asia,Indonesia,Bekasi,West Java,"Lemah Abang, Cikarang, Jl. Raya Tegal Gede, Cikarang Sel.",,3,,,,,,,,,,,,,,
Qinhuangdao Yaohua,,,86 33 5767-3534,http://www.yhgm.com.cn/english/index.asp,Asia,China,Qinhuangdao,,"No.141 YouYi Road Haigang District, Qinhuangdao, China",,15,,,,,,,,,,,,,,
Rider Glass Co.,,,+(86)5328-3873-000 ext 778,http://riderglass.com,Asia,China,Qingdao,Qingdao,"22F Yingdelong Tower, No. 15 West, Donghai Road 266071",Rider Glass reports 4 float lines. The precise locations of the lines have yet to be confirmed.,4,,,,,,,,,,,,,,
Sahand Industrial Group,,,+(98) 4132-4411-723,http://www.sig.co.ir/en/Home/Index,Middle East,Iran,Tabriz,,Akhola Road - 15 Km of Tabriz-Khosroshahr Road,,1,,,,,,,,,,,,,,
Saint-Gobain,,Vidrieria Argentina S.A,411 4239-5000,http://www.vasa.com.ar/,South America,Argentina,Lavallol,Buenos Aires,Antartida Argentina 1360,,1,NSG,,,,,,,,,,,,,
Saint-Gobain,,Cebrace Cristal Plano Ltda,55 12 3655-9000,http://www.cebrace.com.br/,South America,Brazil,Jacarei,Sao Paulo,,,3,NSG (Cebrace),,,,,,,,,,,,,
Saint-Gobain,,Cebrace Cristal Plano Ltda,55 12 3654-5000,http://www.cebrace.com.br/,South America,Brazil,Cacapava,Sao Paulo,,,1,NSG (Cebrace),,,,,,,,,,,,,
Saint-Gobain,,Cebrace Cristal Plano Ltda,55 47 3446-7000,http://www.cebrace.com.br/,South America,Brazil,Barra Velha,Santa Catarina,,,1,NSG (Cebrace),,,,,,,,,,,,,
Saint-Gobain,,,56 4120-1101,https://www.saint-gobain.com/en/brazil-argentina-chile,South America,Chile,Concepcion,,,,1,NSG,,,,,,,,,,,,,
Saint-Gobain,,,0532 8690-7788,https://www.saint-gobain.com/en/asia-pacific,Asia,China,Qingdao,Shandong,Huangdao District,,1,,,,,,,,,,,,,,
Saint-Gobain,,,57 1770-0777,http://www.saint-gobain.com.mx/colombia,South America,Colombia,Bogota,,,,1,NSG,,,,,,,,,,,,,
Saint-Gobain,,,26 2371-0465,https://www.saint-gobain.com/en/italy-egypt-greece-libya-and-turkey,Africa,Egypt,Ain El Sokhna,Suez Governorate,"Km 44 Suez Road, Ain El Sokhna, Suez Governorate, Egypt",,1,Sisecam,,,,,,,,,,,,,
Saint-Gobain,,,,https://www.saint-gobain.com/en/france,Europe,France,Salaise-sur-Sanne,,,,1,Riou,,,,,,,,,,,,,
Saint-Gobain,,,,https://www.saint-gobain.com/en/france,Europe,France,Chantereine,,60150 Thourotte,,1,,,,,,,,,,,,,,
Saint-Gobain,,,,https://www.saint-gobain.com/en/france,Europe,France,Aniche,,,"In May 2017, Saint-Gobain reopened the Aniche-Emerchicourt float plant after $34 million in improvements and repairs. 
https://glassmagazine.com/news-item/commercial/saint-gobain-reopens-aniche-emerchicourt-float-plant-northern-france-1716544",1,,,,,,,,,,,,,,
Saint-Gobain,,,49 240-6820,https://www.saint-gobain.com/en/central-europe,Europe,Germany,Herzogenrath,,"Glasstrasse 1, 52134",,1,,,,,,,,,,,,,,
Saint-Gobain,,,49 2203-8590,https://www.saint-gobain.com/en/central-europe,Europe,Germany,Cologne,,"Poststrasse 103, 51143",,1,,,,,,,,,,,,,,
Saint-Gobain,,,49 0240-2121-0,https://www.saint-gobain.com/en/central-europe,Europe,Germany,Stolberg,,"Nikolausstrasse 1, 52222",,1,,,,,,,,,,,,,,
Saint-Gobain,,,,https://www.saint-gobain.com/en/central-europe,Europe,Germany,Torgau,,,,1,,,,,,,,,,,,,,
Saint-Gobain,,,91 022 4021-2121,https://www.saint-gobain.com/en/india-sri-lanka-bangladesh,Asia,India,Chennai,Tamil Nadu,,Saint-Gobain announced the construction of a third line at the plant in January 2016. http://glassmagazine.com/news-item/commercial/saint-gobain-increase-capacity-india-float-plant-1614684,3,,,,,,,,,,,,,,
Saint-Gobain,,,91 022 4021-2121,https://www.saint-gobain.com/en/india-sri-lanka-bangladesh,Asia,India,Jhagadia,Gujarat,,,1,,,,,,,,,,,,,,
Saint-Gobain,,,91 022 4021-2121,https://www.saint-gobain.com/en/india-sri-lanka-bangladesh,Asia,India,Bhiwadi,Rajasthan,,,1,,,,,,,,,,,,,,
Saint-Gobain,,,,https://www.saint-gobain.com/en/italy-egypt-greece-libya-and-turkey,Europe,Italy,Pisa,,,,1,,,,,,,,,,,,,,
Saint-Gobain,,,52 73 5354-8100,http://mx.saint-gobain-glass.com/,North America,Mexico,Cuautla,Morelos,,,2,,,,,,,,,,,,,,
Saint-Gobain,,,482 2653-7900,https://www.saint-gobain.com/en/poland-romania-and-bulgaria,Europe,Poland,Dabrowa,,Szklanych Domow 1,,2,,,,,,,,,,,,,,
Saint-Gobain,,,003512 1953-4600,https://www.saint-gobain.com/en/spain-portugal-morocco-algeria-and-tunisia,Europe,Portugal,Santa Iria de Azoia,,"Estr. Nacional 10, 2696-652","This plant is no longer operating, according to company officials.",0,,,,,,,,,,,,,,
Saint-Gobain,,,482 2653-7900,https://www.saint-gobain.com/en/poland-romania-and-bulgaria,Europe,Romania,Calarasi,,"Str. Varianata Nord, nr 4 bis, 910053",,1,,,,,,,,,,,,,,
Saint-Gobain,,,785 5575-9146,https://www.saint-gobain.com/en/russia-ukraine-cis-countries,Europe,Russia,Yelabuga,Tatarstan,,,1,Sisecam,,,,,,,,,,,,,
Glenwood Private Equpity (formerly Saint-Gobain),,,826 3460-4114,https://www.saint-gobain.com/en/asia-pacific,Asia,South Korea,Gunsan,Jeollabuk-do,77 Soryong-dong,"Saint-Gobain completed the sale of Hankuk Glass Industries, the company’s construction glass activity in South Korea, to Glenwood Private Equity on Dec. 19, 2019",3,Hanglas,,,,,,,,,,,,,
Saint-Gobain,,,,https://www.saint-gobain.com/en/spain-portugal-morocco-algeria-and-tunisia,Europe,Spain,Aviles,Asturias,,,1,,,,,,,,,,,,,,
Saint-Gobain,,,,https://www.saint-gobain.com/en/spain-portugal-morocco-algeria-and-tunisia,Europe,Spain,L'Arboc,Tarragona,,,1,,,,,,,,,,,,,,
Saint-Gobain,,,44 19 7766-6100,http://uk.saint-gobain-glass.com/,Europe,United Kingdom,Eggborough,,"Weeland Rd, Goole, North Humberside DN14 0FD",,1,,,,,,,,,,,,,,
Salavatsteklo,,,734 7633-5251,http://www.salstek.ru/ [Russian only],Europe,Russia,Salavat,,,,1,,,,,,,,,,,,,,
Shandong Glass Goup,,,86 53 3358-4605,http://en.cnggg.cn/,Asia,China,Zibo,Shandong,,,8,,,,,,,,,,,,,,
Shanghai Yaohua Pilkington Glass Group Co. Ltd.,,,86 512 5229-7000,http://en.sypglass.com/,Asia,China,Suzhou,Jiangsu,"No.10 Xinggang Road, Changshu","As of 2018, Nippon Sheet Glass reduced shareholding in its joint ventures in China, according to company officials.",2,NSG,,,,,,,,,,,,,
Shanghai Yaohua Pilkington Glass Group Co. Ltd.,,,86 22 6320-3102,http://en.sypglass.com/,Asia,China,Tianjin,,,"As of 2018, Nippon Sheet Glass reduced shareholding in its joint ventures in China, according to company officials.",1,NSG,,,,,,,,,,,,,
Shanxi Lihu Glass Group Co. Ltd.,,,0086 35 1652-6615,http://www.lhglass.com.cn/ (Chinese only),Asia,China,Luliang,Shanxi,,,4,,,,,,,,,,,,,,
Shanxi Lihu Glass Group Co. Ltd.,,,0086 35 1652-6615,http://www.lhglass.com.cn/ (Chinese only),Asia,China,Taiyuan,Shanxi,,,2,,,,,,,,,,,,,,
Shenzhen Jimy Glass Co. Ltd.,,,0086 755 8934-0251,http://www.jimyglass.com/,Asia,China,Shenzhen,Guangdong,,,8,,,,,,,,,,,,,,
Shenzhen Sun Global Glass Co. Ltd.,,,0086 755 8472-5742,http://www.sunglobalglass.com/,Asia,China,Shenzhen,Guangdong,,,0,,,,,,,,,,,,,,
Sisecam,,,26 2371-0465,http://www.sisecam.com.tr/en/,,Egypt,Ain El Sokhna,Suez Governorate,"Km 44 Suez Road, Ain El Sokhna",,1,Saint-Gobain,,,,,,,,,,,,,
Sisecam (Trakya Cam Sanayii A.?.),,,91 26 7622-6400,http://www.hngfloat.com/,Asia,India,Halol,Gujarat,,"Trakya Cam Sanayii A.?., a Sisecam Group company, bought out HNG Float Glass in June 2018. https://glassmagazine.com/news-item/commercial/%C5%9Fi%C5%9Fecam-group-completes-buy-out-hng-float-glass-1818001",1,,,,,,,,,,,,,,
Sisecam (Trakya Cam),,,39 08 8458-0548,http://sangalligroup.com/en/home/,Europe,Italy,San Giorgio di Nogaro,,"Via Jacopo Linussio, 2, 33058","In 2016, ?i?ecam Group Member Trakya Cam Sanayii A.?. acquired the assets of Sangalli Vetro Porto Nogaro. http://glassmagazine.com/news-item/commercial/%C5%9Fi%C5%9Fecam-group-member-trakya-cam-sanayii-a%C5%9F-acquires-italian-manufacturer-161589",1,,,,,,,,,,,,,,
Sisecam (Trakya Cam),,,90 22 4280-1205,http://www.sisecam.com.tr/en/,Asia,Turkey,Yenisehir,Bursa,,,2,,,,,,,,,,,,,,
Sisecam (Trakya Cam),,,90 32 4676-4070,http://www.sisecam.com.tr/en/,Asia,Turkey,Mersin,,Mersin Tarsus Organize Sanayi Bolgesi,,2,,,,,,,,,,,,,,
Sisecam (Trakya Cam),,,90 28 8400-8000,http://www.sisecam.com.tr/en/,Europe,Turkey,Luleburgaz,Kirklareli,,,2,,,,,,,,,,,,,,
Sisecam (Trakya Cam),,,39 08 8458-0548,http://www.sisecam.com.tr/en,Europe,Italy,Manfredonia,,,Sisecam acquired the Sangalli Group’s Sangalli Manfredonia facilities in southern Italy in February. https://glassmagazine.com/news-item/commercial/%C5%9Fi%C5%9Fecam-moves-acquire-second-float-plant-italy-1817499,1,,,,,,,,,,,,,,
Sisecam (Trakya Glass Bulgaria EAD),,,359 6014-7801,http://www.sisecam.com.tr/en/,Europe,Bulgaria,Targovishte,,,,1,,,,,,,,,,,,,,
Sisecam (Trakya glass rus zao),,,785 5575-9146,http://www.sisecam.com.tr/en/ & https://www.saint-gobain.com/en/russia-ukraine-cis-countries,Europe,Russia,Yelabuga,Tatarstan,,,1,Saint-Gobain,,,,,,,,,,,,,
Sisecam (Trakya Polatl? Cam Sanayii A.S.),,,031 2626-5121,http://www.sisecam.com.tr/en/,Asia,Turkey,Polatli/Ankara,,,,1,,,,,,,,,,,,,,
Sphinx Glass,,,202 2525-8005,http://sphinxglass.com/en/Home,Africa,Egypt,Sadat City,Menoufeya,,,1,,,,,,,,,,,,,,
Taiwan Glass Group,,,886 2 2713-0333,http://www.taiwanglass.com/index.php?langeno=en,Asia,Taiwan,Taichung,,,,3,,,,,,,,,,,,,,
Taiwan Glass Group,,,886 2 2713-0333,http://www.taiwanglass.com/index.php?langeno=en,Asia,Taiwan,Lukang,,,,1,,,,,,,,,,,,,,
Taiwan Glass Group (Qingdao Float Glass Co. Ltd),,,86 532 8316-1177,http://www.taiwanglass.com/index.php?langeno=en,Asia,China,Qingdao,Shandong,,,1,,,,,,,,,,,,,,
Taiwan Glass Group (Taibo Changjiang Glass Co. Ltd. (CFG)),,,86 512 5744-0001,http://www.taiwanglass.com/index.php?langeno=en,Asia,China,Kunshan,Jiangsu,,,3,,,,,,,,,,,,,,
Taiwan Glass Group (TG Chengdu Glass Co. Ltd.),,,86 28 8366-7100,http://www.taiwanglass.com/index.php?langeno=en,Asia,China,Chengdu,Sichuan,,,1,,,,,,,,,,,,,,
Taiwan Glass Group (TG Donghai Glass Co. Ltd. (DHG)),,,86 518 8726-6866,http://www.taiwanglass.com/index.php?langeno=en,Asia,China,Donghai,Jiangsu,,,1,,,,,,,,,,,,,,
Taiwan Glass Group (TG Huanan Glass Co. Ltd),,,86 769 8884-1000,http://www.taiwanglass.com/index.php?langeno=en,Asia,China,Huanan,,,,2,,,,,,,,,,,,,,
Taiwan Glass Group (TG Tianjin Glass.Co. Ltd),,,86 22 6866-0077,http://www.taiwanglass.com/index.php?langeno=en,Asia,China,Jinghai,,Tianyu Technology Park,,1,,,,,,,,,,,,,,
Taiwan Glass Ind. Corp.,,,0227-1580-31,http://taiwanglass.com,Asia,Taiwan,Taipei,,"261, Sec. 3, Nanjing E. Road",Taiwan Glass Ind. Corp. reports 14 float lines. The precise locations of the lines have yet to be confirmed.,14,,,,,,,,,,,,,,
Tengzhou Glass Co.,,,86 63 2266-6766,http://www.tzjmglass.com/english/,Asia,China,Zaozhuang,Shandong,,,4,,,,,,,,,,,,,,
TQMP Glass Manufacturing Corp.,,,63 2628-3350,http://www.agc-flatglass.ph/,Asia,Philippines,Pasig City Manilla,Manila,,TQMP Glass Manufacturing Corp. acquired the plant from AGC Glass Co. in January. https://glassmagazine.com/news-item/commercial/filipino-glass-manufacturer-acquires-agc-flat-glass-philippines-inc-1817450,1,,,,,,,,,,,,,,
Turkmen Glass Products,,,+(993) 4444-627,http://www.tepe.com.tr/en/yatirim/project-archive/industrial-facilities-11-5-2018-18-10-17/turkmenistan-glass-and-glass-products-factory,Asia,Turkmenistan,Ashgabat,,,The new plant opened in February. https://glassmagazine.com/news-item/commercial/largest-float-glass-plant-central-asia-opens-turkmenistan-1817524,1,,,,,,,,,,,,,,
Viglacera Float Glass Co.,,,84 4 3553-6660,http://www.viglacera.com.vn/en/portal/product.php/home.html,Asia,Vietnam,Di An,Binh Duong,,,1,,,,,,,,,,,,,,
Viridian,,,61 18 0081 0403,http://www.viridianglass.com/Residential/Pages/default.aspx,Australia,Australia,Dandenong,Victoria,"95 Greens Rd, Dandenong South VIC 3175",,1,,,,,,,,,,,,,,
Vitro,,,52 81 8863-1600,http://www.vitro.com/en,North America,Mexico,Mexicali,Baja California,,Under repair. http://glassmagazine.com/article/commercial/vitro-announces-new-float-line-mexico-1614677,1,,,,,,,,,,,,,,
Vitro,,,52 81 8863-1600,http://www.vitro.com/en,North America,Mexico,Monterrey,Nuevo Leon,,,2,,,,,,,,,,,,,,
Vitro Architectural Glass,,,717-486-3366,http://corporate.ppg.com/Home.aspx,North America,US,Carlisle,PA,400 Park Drive,"Vitro restarted line 1 at this facility after the line experienced a glass leak in August 2017. 
https://glassmagazine.com/news-item/commercial/vitro-restarts-shuttered-float-line-will-unveil-msvd-coater-1818174",2,,,,,,,,,,,,,,
Vitro Architectural Glass,,,559-485-4660,http://corporate.ppg.com/Home.aspx,North America,US,Fresno,CA,3333 South Peach Ave.,"In 2016, Vitro purchased the flat glass business of PPG Industries, including all float glass operations. http://glassmagazine.com/news-item/commercial/updated-ppg-reaches-agreement-vitro-sale-flat-glass-operations-1615369",1,,,,,,,,,,,,,,
Vitro Architectural Glass,,,940-855-3804,http://corporate.ppg.com/Home.aspx,North America,US,Wichita Falls,TX,7400 Central Freeway North,Vitro launched its new MSVD coater at this facility in August. https://glassmagazine.com/news-item/commercial/vitro-glass-launches-operations-jumbo-msvd-coater-wichita-falls-1818220,2,,,,,,,,,,,,,,
Vitro Architectural Glass,,,814-336-4411,http://www.vitro.com/en,North America,US,Meadville,PA,Kebert Industrial Park,"In 2016, Vitro acquired the Pittsburgh Glass Works LLC automotive original equipment manufacturer glass business from LKQ Corp. for approximately $310 million. The deal included PGW's two float glass furnaces in the United States. https://glassmagazine.co",2,,,,,,,,,,,,,,
Wuhan Changli Glass Co. Ltd.,,,,,Asia,China,Wuhan,Hubei,,,4,,,,,,,,,,,,,,
Xinyi Glass,,,86 769 8526-6666,http://www.xinyiglass.com/en/about_zgs.asp?id=4,Asia,China,Humen,Guangdong,,,4,,,,,,,,,,,,,,
Xinyi Glass,,,86 55 3589-9999,http://www.xinyiglass.com/en/about_zgs.asp?id=5,Asia,China,Wuhu,Anhui,Wuhu Economic and Technical Development Zone,,4,,,,,,,,,,,,,,
Xinyi Glass,,,86 22 8215-9888,http://www.xinyiglass.com/en/about_zgs.asp?id=6,Asia,China,Wuqing,Tianjin,Wuqing Development Zone,,3,,,,,,,,,,,,,,
Xinyi Glass,,,86 75 0379-8888,http://www.xinyiglass.com/en/about_zgs.asp?id=7,Asia,China,Jiangmen,Guangdong,,,3,,,,,,,,,,,,,,
Xinyi Glass,,,86 41 7820-1111,http://www.xinyiglass.com/en/about_zgs.asp?id=23,Asia,China,Yingkou,Liaoning,Yingkou Economic and Technical Development Zone,,2,,,,,,,,,,,,,,
Xinyi Glass,,,86 838 8506-9386,http://www.xinyiglass.com/en/about_zgs.asp?id=27,Asia,China,Deyang,Sichuan,Deyang Economic and Technical Development Zone,,1,,,,,,,,,,,,,,
Zhejiang Daming Glass Co.,,,86 0571 2286-2751,http://www.damingglass.com/en/index.php,Asia,China,Jiaxing,Zhejiang,,,2,,,,,,,,,,,,,,
,,,,,,,,,,,451,,,,,,,,,,,,,,
,,,,,,,,,,,,,,,,,,,,,,,,,
,,,,,,,,,,,,,,,,,,,,,,,,,
,,,,,,,,,,,,,,,,,,,,,,,,,
,,,,,,,,,,,,,,,,,,,,,,,,,
,,,,,,,,,,,,,,,,,,,,,,,,,
,,,,,,,,,,,,,,,,,,,,,,,,,
,,,,,,,,,,,,,,,,,,,,,,,,,
,,,,,,,,,,,,,,,,,,,,,,,,,
,,,,,,,,,,,,,,,,,,,,,,,,,
,,,,,,,,,,,,,,,,,,,,,,,,,
,,,,,,,,,,,,,,,,,,,,,,,,,
,,,,,,,,,,,,,,,,,,,,,,,,,
,,,,,,,,,,,,,,,,,,,,,,,,,
,,,,,,,,,,,,,,,,,,,,,,,,,
,,,,,,,,,,,,,,,,,,,,,,,,,
,,,,,,,,,,,,,,,,,,,,,,,,,
,,,,,,,,,,,,,,,,,,,,,,,,,
,,,,,,,,,,,,,,,,,,,,,,,,,
,,,,,,,,,,,,,,,,,,,,,,,,,
,,,,,,,,,,,,,,,,,,,,,,,,,
,,,,,,,,,,,,,,,,,,,,,,,,,
,,,,,,,,,,,,,,,,,,,,,,,,,
,,,,,,,,,,,,,,,,,,,,,,,,,
,,,,,,,,,,,,,,,,,,,,,,,,,
,,,,,,,,,,,,,,,,,,,,,,,,,
,,,,,,,,,,,,,,,,,,,,,,,,,
,,,,,,,,,,,,,,,,,,,,,,,,,
,,,,,,,,,,,,,,,,,,,,,,,,,
,,,,,,,,,,,,,,,,,,,,,,,,,
,,,,,,,,,,,,,,,,,,,,,,,,,
,,,,,,,,,,,,,,,,,,,,,,,,,
,,,,,,,,,,,,,,,,,,,,,,,,,
,,,,,,,,,,,,,,,,,,,,,,,,,
,,,,,,,,,,,,,,,,,,,,,,,,,
,,,,,,,,,,,,,,,,,,,,,,,,,
,,,,,,,,,,,,,,,,,,,,,,,,,
,,,,,,,,,,,,,,,,,,,,,,,,,
,,,,,,,,,,,,,,,,,,,,,,,,,
,,,,,,,,,,,,,,,,,,,,,,,,,
,,,,,,,,,,,,,,,,,,,,,,,,,
,,,,,,,,,,,,,,,,,,,,,,,,,
,,,,,,,,,,,,,,,,,,,,,,,,,
,,,,,,,,,,,,,,,,,,,,,,,,,
,,,,,,,,,,,,,,,,,,,,,,,,,
,,,,,,,,,,,,,,,,,,,,,,,,,
,,,,,,,,,,,,,,,,,,,,,,,,,
,,,,,,,,,,,,,,,,,,,,,,,,,
,,,,,,,,,,,,,,,,,,,,,,,,,
,,,,,,,,,,,,,,,,,,,,,,,,,
,,,,,,,,,,,,,,,,,,,,,,,,,
,,,,,,,,,,,,,,,,,,,,,,,,,
,,,,,,,,,,,,,,,,,,,,,,,,,
,,,,,,,,,,,,,,,,,,,,,,,,,
,,,,,,,,,,,,,,,,,,,,,,,,,
,,,,,,,,,,,,,,,,,,,,,,,,,
,,,,,,,,,,,,,,,,,,,,,,,,,
,,,,,,,,,,,,,,,,,,,,,,,,,
,,,,,,,,,,,,,,,,,,,,,,,,,
,,,,,,,,,,,,,,,,,,,,,,,,,
,,,,,,,,,,,,,,,,,,,,,,,,,
,,,,,,,,,,,,,,,,,,,,,,,,,
,,,,,,,,,,,,,,,,,,,,,,,,,
,,,,,,,,,,,,,,,,,,,,,,,,,
,,,,,,,,,,,,,,,,,,,,,,,,,
,,,,,,,,,,,,,,,,,,,,,,,,,
,,,,,,,,,,,,,,,,,,,,,,,,,
,,,,,,,,,,,,,,,,,,,,,,,,,
,,,,,,,,,,,,,,,,,,,,,,,,,
,,,,,,,,,,,,,,,,,,,,,,,,,
,,,,,,,,,,,,,,,,,,,,,,,,,
,,,,,,,,,,,,,,,,,,,,,,,,,
,,,,,,,,,,,,,,,,,,,,,,,,,
,,,,,,,,,,,,,,,,,,,,,,,,,
,,,,,,,,,,,,,,,,,,,,,,,,,
,,,,,,,,,,,,,,,,,,,,,,,,,
,,,,,,,,,,,,,,,,,,,,,,,,,
,,,,,,,,,,,,,,,,,,,,,,,,,
,,,,,,,,,,,,,,,,,,,,,,,,,
,,,,,,,,,,,,,,,,,,,,,,,,,
,,,,,,,,,,,,,,,,,,,,,,,,,
,,,,,,,,,,,,,,,,,,,,,,,,,
,,,,,,,,,,,,,,,,,,,,,,,,,
,,,,,,,,,,,,,,,,,,,,,,,,,
,,,,,,,,,,,,,,,,,,,,,,,,,
,,,,,,,,,,,,,,,,,,,,,,,,,
,,,,,,,,,,,,,,,,,,,,,,,,,
,,,,,,,,,,,,,,,,,,,,,,,,,
,,,,,,,,,,,,,,,,,,,,,,,,,
,,,,,,,,,,,,,,,,,,,,,,,,,
,,,,,,,,,,,,,,,,,,,,,,,,,
,,,,,,,,,,,,,,,,,,,,,,,,,
,,,,,,,,,,,,,,,,,,,,,,,,,
,,,,,,,,,,,,,,,,,,,,,,,,,
,,,,,,,,,,,,,,,,,,,,,,,,,
,,,,,,,,,,,,,,,,,,,,,,,,,
,,,,,,,,,,,,,,,,,,,,,,,,,
,,,,,,,,,,,,,,,,,,,,,,,,,
,,,,,,,,,,,,,,,,,,,,,,,,,
,,,,,,,,,,,,,,,,,,,,,,,,,
,,,,,,,,,,,,,,,,,,,,,,,,,
,,,,,,,,,,,,,,,,,,,,,,,,,
,,,,,,,,,,,,,,,,,,,,,,,,,
,,,,,,,,,,,,,,,,,,,,,,,,,
,,,,,,,,,,,,,,,,,,,,,,,,,
,,,,,,,,,,,,,,,,,,,,,,,,,
,,,,,,,,,,,,,,,,,,,,,,,,,
,,,,,,,,,,,,,,,,,,,,,,,,,
,,,,,,,,,,,,,,,,,,,,,,,,,
,,,,,,,,,,,,,,,,,,,,,,,,,
,,,,,,,,,,,,,,,,,,,,,,,,,
,,,,,,,,,,,,,,,,,,,,,,,,,
,,,,,,,,,,,,,,,,,,,,,,,,,
,,,,,,,,,,,,,,,,,,,,,,,,,
,,,,,,,,,,,,,,,,,,,,,,,,,
,,,,,,,,,,,,,,,,,,,,,,,,,
,,,,,,,,,,,,,,,,,,,,,,,,,
,,,,,,,,,,,,,,,,,,,,,,,,,
,,,,,,,,,,,,,,,,,,,,,,,,,
,,,,,,,,,,,,,,,,,,,,,,,,,
,,,,,,,,,,,,,,,,,,,,,,,,,
,,,,,,,,,,,,,,,,,,,,,,,,,
,,,,,,,,,,,,,,,,,,,,,,,,,
,,,,,,,,,,,,,,,,,,,,,,,,,
,,,,,,,,,,,,,,,,,,,,,,,,,
,,,,,,,,,,,,,,,,,,,,,,,,,
,,,,,,,,,,,,,,,,,,,,,,,,,
,,,,,,,,,,,,,,,,,,,,,,,,,
,,,,,,,,,,,,,,,,,,,,,,,,,
,,,,,,,,,,,,,,,,,,,,,,,,,
,,,,,,,,,,,,,,,,,,,,,,,,,
,,,,,,,,,,,,,,,,,,,,,,,,,
,,,,,,,,,,,,,,,,,,,,,,,,,
,,,,,,,,,,,,,,,,,,,,,,,,,
,,,,,,,,,,,,,,,,,,,,,,,,,
,,,,,,,,,,,,,,,,,,,,,,,,,
,,,,,,,,,,,,,,,,,,,,,,,,,
,,,,,,,,,,,,,,,,,,,,,,,,,
,,,,,,,,,,,,,,,,,,,,,,,,,
,,,,,,,,,,,,,,,,,,,,,,,,,
,,,,,,,,,,,,,,,,,,,,,,,,,
,,,,,,,,,,,,,,,,,,,,,,,,,
,,,,,,,,,,,,,,,,,,,,,,,,,
,,,,,,,,,,,,,,,,,,,,,,,,,
,,,,,,,,,,,,,,,,,,,,,,,,,
,,,,,,,,,,,,,,,,,,,,,,,,,
,,,,,,,,,,,,,,,,,,,,,,,,,
,,,,,,,,,,,,,,,,,,,,,,,,,
,,,,,,,,,,,,,,,,,,,,,,,,,
,,,,,,,,,,,,,,,,,,,,,,,,,
,,,,,,,,,,,,,,,,,,,,,,,,,
,,,,,,,,,,,,,,,,,,,,,,,,,
,,,,,,,,,,,,,,,,,,,,,,,,,
,,,,,,,,,,,,,,,,,,,,,,,,,
,,,,,,,,,,,,,,,,,,,,,,,,,
,,,,,,,,,,,,,,,,,,,,,,,,,
,,,,,,,,,,,,,,,,,,,,,,,,,
,,,,,,,,,,,,,,,,,,,,,,,,,
,,,,,,,,,,,,,,,,,,,,,,,,,
,,,,,,,,,,,,,,,,,,,,,,,,,
,,,,,,,,,,,,,,,,,,,,,,,,,
,,,,,,,,,,,,,,,,,,,,,,,,,
,,,,,,,,,,,,,,,,,,,,,,,,,
,,,,,,,,,,,,,,,,,,,,,,,,,
,,,,,,,,,,,,,,,,,,,,,,,,,
,,,,,,,,,,,,,,,,,,,,,,,,,
,,,,,,,,,,,,,,,,,,,,,,,,,
,,,,,,,,,,,,,,,,,,,,,,,,,
,,,,,,,,,,,,,,,,,,,,,,,,,
,,,,,,,,,,,,,,,,,,,,,,,,,
,,,,,,,,,,,,,,,,,,,,,,,,,
,,,,,,,,,,,,,,,,,,,,,,,,,
,,,,,,,,,,,,,,,,,,,,,,,,,
,,,,,,,,,,,,,,,,,,,,,,,,,
,,,,,,,,,,,,,,,,,,,,,,,,,
,,,,,,,,,,,,,,,,,,,,,,,,,
,,,,,,,,,,,,,,,,,,,,,,,,,
,,,,,,,,,,,,,,,,,,,,,,,,,
,,,,,,,,,,,,,,,,,,,,,,,,,
,,,,,,,,,,,,,,,,,,,,,,,,,
,,,,,,,,,,,,,,,,,,,,,,,,,
,,,,,,,,,,,,,,,,,,,,,,,,,
,,,,,,,,,,,,,,,,,,,,,,,,,
,,,,,,,,,,,,,,,,,,,,,,,,,
,,,,,,,,,,,,,,,,,,,,,,,,,
,,,,,,,,,,,,,,,,,,,,,,,,,
,,,,,,,,,,,,,,,,,,,,,,,,,
,,,,,,,,,,,,,,,,,,,,,,,,,
,,,,,,,,,,,,,,,,,,,,,,,,,
,,,,,,,,,,,,,,,,,,,,,,,,,
,,,,,,,,,,,,,,,,,,,,,,,,,
,,,,,,,,,,,,,,,,,,,,,,,,,
,,,,,,,,,,,,,,,,,,,,,,,,,
,,,,,,,,,,,,,,,,,,,,,,,,,
,,,,,,,,,,,,,,,,,,,,,,,,,
,,,,,,,,,,,,,,,,,,,,,,,,,
,,,,,,,,,,,,,,,,,,,,,,,,,
,,,,,,,,,,,,,,,,,,,,,,,,,
,,,,,,,,,,,,,,,,,,,,,,,,,
,,,,,,,,,,,,,,,,,,,,,,,,,
,,,,,,,,,,,,,,,,,,,,,,,,,
,,,,,,,,,,,,,,,,,,,,,,,,,
,,,,,,,,,,,,,,,,,,,,,,,,,
,,,,,,,,,,,,,,,,,,,,,,,,,
,,,,,,,,,,,,,,,,,,,,,,,,,
,,,,,,,,,,,,,,,,,,,,,,,,,
,,,,,,,,,,,,,,,,,,,,,,,,,
,,,,,,,,,,,,,,,,,,,,,,,,,
,,,,,,,,,,,,,,,,,,,,,,,,,
,,,,,,,,,,,,,,,,,,,,,,,,,
,,,,,,,,,,,,,,,,,,,,,,,,,
,,,,,,,,,,,,,,,,,,,,,,,,,
,,,,,,,,,,,,,,,,,,,,,,,,,
,,,,,,,,,,,,,,,,,,,,,,,,,
,,,,,,,,,,,,,,,,,,,,,,,,,
,,,,,,,,,,,,,,,,,,,,,,,,,
,,,,,,,,,,,,,,,,,,,,,,,,,
,,,,,,,,,,,,,,,,,,,,,,,,,
,,,,,,,,,,,,,,,,,,,,,,,,,
,,,,,,,,,,,,,,,,,,,,,,,,,
,,,,,,,,,,,,,,,,,,,,,,,,,
,,,,,,,,,,,,,,,,,,,,,,,,,
,,,,,,,,,,,,,,,,,,,,,,,,,
,,,,,,,,,,,,,,,,,,,,,,,,,
,,,,,,,,,,,,,,,,,,,,,,,,,
,,,,,,,,,,,,,,,,,,,,,,,,,
,,,,,,,,,,,,,,,,,,,,,,,,,
,,,,,,,,,,,,,,,,,,,,,,,,,
,,,,,,,,,,,,,,,,,,,,,,,,,
,,,,,,,,,,,,,,,,,,,,,,,,,
,,,,,,,,,,,,,,,,,,,,,,,,,
,,,,,,,,,,,,,,,,,,,,,,,,,
,,,,,,,,,,,,,,,,,,,,,,,,,
,,,,,,,,,,,,,,,,,,,,,,,,,
,,,,,,,,,,,,,,,,,,,,,,,,,
,,,,,,,,,,,,,,,,,,,,,,,,,
,,,,,,,,,,,,,,,,,,,,,,,,,
,,,,,,,,,,,,,,,,,,,,,,,,,
,,,,,,,,,,,,,,,,,,,,,,,,,
,,,,,,,,,,,,,,,,,,,,,,,,,
,,,,,,,,,,,,,,,,,,,,,,,,,
,,,,,,,,,,,,,,,,,,,,,,,,,
,,,,,,,,,,,,,,,,,,,,,,,,,
,,,,,,,,,,,,,,,,,,,,,,,,,
,,,,,,,,,,,,,,,,,,,,,,,,,
,,,,,,,,,,,,,,,,,,,,,,,,,
,,,,,,,,,,,,,,,,,,,,,,,,,
,,,,,,,,,,,,,,,,,,,,,,,,,
,,,,,,,,,,,,,,,,,,,,,,,,,
,,,,,,,,,,,,,,,,,,,,,,,,,
,,,,,,,,,,,,,,,,,,,,,,,,,
,,,,,,,,,,,,,,,,,,,,,,,,,
,,,,,,,,,,,,,,,,,,,,,,,,,
,,,,,,,,,,,,,,,,,,,,,,,,,
,,,,,,,,,,,,,,,,,,,,,,,,,
,,,,,,,,,,,,,,,,,,,,,,,,,
,,,,,,,,,,,,,,,,,,,,,,,,,
,,,,,,,,,,,,,,,,,,,,,,,,,
,,,,,,,,,,,,,,,,,,,,,,,,,
,,,,,,,,,,,,,,,,,,,,,,,,,
,,,,,,,,,,,,,,,,,,,,,,,,,
,,,,,,,,,,,,,,,,,,,,,,,,,
,,,,,,,,,,,,,,,,,,,,,,,,,
,,,,,,,,,,,,,,,,,,,,,,,,,
,,,,,,,,,,,,,,,,,,,,,,,,,
,,,,,,,,,,,,,,,,,,,,,,,,,
,,,,,,,,,,,,,,,,,,,,,,,,,
,,,,,,,,,,,,,,,,,,,,,,,,,
,,,,,,,,,,,,,,,,,,,,,,,,,
,,,,,,,,,,,,,,,,,,,,,,,,,
,,,,,,,,,,,,,,,,,,,,,,,,,
,,,,,,,,,,,,,,,,,,,,,,,,,
,,,,,,,,,,,,,,,,,,,,,,,,,
,,,,,,,,,,,,,,,,,,,,,,,,,
,,,,,,,,,,,,,,,,,,,,,,,,,
,,,,,,,,,,,,,,,,,,,,,,,,,
,,,,,,,,,,,,,,,,,,,,,,,,,
,,,,,,,,,,,,,,,,,,,,,,,,,
,,,,,,,,,,,,,,,,,,,,,,,,,
,,,,,,,,,,,,,,,,,,,,,,,,,
,,,,,,,,,,,,,,,,,,,,,,,,,
,,,,,,,,,,,,,,,,,,,,,,,,,
,,,,,,,,,,,,,,,,,,,,,,,,,
,,,,,,,,,,,,,,,,,,,,,,,,,
,,,,,,,,,,,,,,,,,,,,,,,,,
,,,,,,,,,,,,,,,,,,,,,,,,,
,,,,,,,,,,,,,,,,,,,,,,,,,
,,,,,,,,,,,,,,,,,,,,,,,,,
,,,,,,,,,,,,,,,,,,,,,,,,,
,,,,,,,,,,,,,,,,,,,,,,,,,
,,,,,,,,,,,,,,,,,,,,,,,,,
,,,,,,,,,,,,,,,,,,,,,,,,,
,,,,,,,,,,,,,,,,,,,,,,,,,
,,,,,,,,,,,,,,,,,,,,,,,,,
,,,,,,,,,,,,,,,,,,,,,,,,,
,,,,,,,,,,,,,,,,,,,,,,,,,
,,,,,,,,,,,,,,,,,,,,,,,,,
,,,,,,,,,,,,,,,,,,,,,,,,,
,,,,,,,,,,,,,,,,,,,,,,,,,
,,,,,,,,,,,,,,,,,,,,,,,,,
,,,,,,,,,,,,,,,,,,,,,,,,,
,,,,,,,,,,,,,,,,,,,,,,,,,
,,,,,,,,,,,,,,,,,,,,,,,,,
,,,,,,,,,,,,,,,,,,,,,,,,,
,,,,,,,,,,,,,,,,,,,,,,,,,
,,,,,,,,,,,,,,,,,,,,,,,,,
,,,,,,,,,,,,,,,,,,,,,,,,,
,,,,,,,,,,,,,,,,,,,,,,,,,
,,,,,,,,,,,,,,,,,,,,,,,,,
,,,,,,,,,,,,,,,,,,,,,,,,,
,,,,,,,,,,,,,,,,,,,,,,,,,
,,,,,,,,,,,,,,,,,,,,,,,,,
,,,,,,,,,,,,,,,,,,,,,,,,,
,,,,,,,,,,,,,,,,,,,,,,,,,
,,,,,,,,,,,,,,,,,,,,,,,,,
,,,,,,,,,,,,,,,,,,,,,,,,,
,,,,,,,,,,,,,,,,,,,,,,,,,
,,,,,,,,,,,,,,,,,,,,,,,,,
,,,,,,,,,,,,,,,,,,,,,,,,,
,,,,,,,,,,,,,,,,,,,,,,,,,
,,,,,,,,,,,,,,,,,,,,,,,,,
,,,,,,,,,,,,,,,,,,,,,,,,,
,,,,,,,,,,,,,,,,,,,,,,,,,
,,,,,,,,,,,,,,,,,,,,,,,,,
,,,,,,,,,,,,,,,,,,,,,,,,,
,,,,,,,,,,,,,,,,,,,,,,,,,
,,,,,,,,,,,,,,,,,,,,,,,,,
,,,,,,,,,,,,,,,,,,,,,,,,,
,,,,,,,,,,,,,,,,,,,,,,,,,
,,,,,,,,,,,,,,,,,,,,,,,,,
,,,,,,,,,,,,,,,,,,,,,,,,,
,,,,,,,,,,,,,,,,,,,,,,,,,
,,,,,,,,,,,,,,,,,,,,,,,,,
,,,,,,,,,,,,,,,,,,,,,,,,,
,,,,,,,,,,,,,,,,,,,,,,,,,
,,,,,,,,,,,,,,,,,,,,,,,,,
,,,,,,,,,,,,,,,,,,,,,,,,,
,,,,,,,,,,,,,,,,,,,,,,,,,
,,,,,,,,,,,,,,,,,,,,,,,,,
,,,,,,,,,,,,,,,,,,,,,,,,,
,,,,,,,,,,,,,,,,,,,,,,,,,
,,,,,,,,,,,,,,,,,,,,,,,,,
,,,,,,,,,,,,,,,,,,,,,,,,,
,,,,,,,,,,,,,,,,,,,,,,,,,
,,,,,,,,,,,,,,,,,,,,,,,,,
,,,,,,,,,,,,,,,,,,,,,,,,,
,,,,,,,,,,,,,,,,,,,,,,,,,
,,,,,,,,,,,,,,,,,,,,,,,,,
,,,,,,,,,,,,,,,,,,,,,,,,,
,,,,,,,,,,,,,,,,,,,,,,,,,
,,,,,,,,,,,,,,,,,,,,,,,,,
,,,,,,,,,,,,,,,,,,,,,,,,,
,,,,,,,,,,,,,,,,,,,,,,,,,
,,,,,,,,,,,,,,,,,,,,,,,,,
,,,,,,,,,,,,,,,,,,,,,,,,,
,,,,,,,,,,,,,,,,,,,,,,,,,
,,,,,,,,,,,,,,,,,,,,,,,,,
,,,,,,,,,,,,,,,,,,,,,,,,,
,,,,,,,,,,,,,,,,,,,,,,,,,
,,,,,,,,,,,,,,,,,,,,,,,,,
,,,,,,,,,,,,,,,,,,,,,,,,,
,,,,,,,,,,,,,,,,,,,,,,,,,
,,,,,,,,,,,,,,,,,,,,,,,,,
,,,,,,,,,,,,,,,,,,,,,,,,,
,,,,,,,,,,,,,,,,,,,,,,,,,
,,,,,,,,,,,,,,,,,,,,,,,,,
,,,,,,,,,,,,,,,,,,,,,,,,,
,,,,,,,,,,,,,,,,,,,,,,,,,
,,,,,,,,,,,,,,,,,,,,,,,,,
,,,,,,,,,,,,,,,,,,,,,,,,,
,,,,,,,,,,,,,,,,,,,,,,,,,
,,,,,,,,,,,,,,,,,,,,,,,,,
,,,,,,,,,,,,,,,,,,,,,,,,,
,,,,,,,,,,,,,,,,,,,,,,,,,
,,,,,,,,,,,,,,,,,,,,,,,,,
,,,,,,,,,,,,,,,,,,,,,,,,,
,,,,,,,,,,,,,,,,,,,,,,,,,
,,,,,,,,,,,,,,,,,,,,,,,,,
,,,,,,,,,,,,,,,,,,,,,,,,,
,,,,,,,,,,,,,,,,,,,,,,,,,
,,,,,,,,,,,,,,,,,,,,,,,,,
,,,,,,,,,,,,,,,,,,,,,,,,,
,,,,,,,,,,,,,,,,,,,,,,,,,
,,,,,,,,,,,,,,,,,,,,,,,,,
,,,,,,,,,,,,,,,,,,,,,,,,,
,,,,,,,,,,,,,,,,,,,,,,,,,
,,,,,,,,,,,,,,,,,,,,,,,,,
,,,,,,,,,,,,,,,,,,,,,,,,,
,,,,,,,,,,,,,,,,,,,,,,,,,
,,,,,,,,,,,,,,,,,,,,,,,,,
,,,,,,,,,,,,,,,,,,,,,,,,,
,,,,,,,,,,,,,,,,,,,,,,,,,
,,,,,,,,,,,,,,,,,,,,,,,,,
,,,,,,,,,,,,,,,,,,,,,,,,,
,,,,,,,,,,,,,,,,,,,,,,,,,
,,,,,,,,,,,,,,,,,,,,,,,,,
,,,,,,,,,,,,,,,,,,,,,,,,,
,,,,,,,,,,,,,,,,,,,,,,,,,
,,,,,,,,,,,,,,,,,,,,,,,,,
,,,,,,,,,,,,,,,,,,,,,,,,,
,,,,,,,,,,,,,,,,,,,,,,,,,
,,,,,,,,,,,,,,,,,,,,,,,,,
,,,,,,,,,,,,,,,,,,,,,,,,,
,,,,,,,,,,,,,,,,,,,,,,,,,
,,,,,,,,,,,,,,,,,,,,,,,,,
,,,,,,,,,,,,,,,,,,,,,,,,,
,,,,,,,,,,,,,,,,,,,,,,,,,
,,,,,,,,,,,,,,,,,,,,,,,,,
,,,,,,,,,,,,,,,,,,,,,,,,,
,,,,,,,,,,,,,,,,,,,,,,,,,
,,,,,,,,,,,,,,,,,,,,,,,,,
,,,,,,,,,,,,,,,,,,,,,,,,,
,,,,,,,,,,,,,,,,,,,,,,,,,
,,,,,,,,,,,,,,,,,,,,,,,,,
,,,,,,,,,,,,,,,,,,,,,,,,,
,,,,,,,,,,,,,,,,,,,,,,,,,
,,,,,,,,,,,,,,,,,,,,,,,,,
,,,,,,,,,,,,,,,,,,,,,,,,,
,,,,,,,,,,,,,,,,,,,,,,,,,
,,,,,,,,,,,,,,,,,,,,,,,,,
,,,,,,,,,,,,,,,,,,,,,,,,,
,,,,,,,,,,,,,,,,,,,,,,,,,
,,,,,,,,,,,,,,,,,,,,,,,,,
,,,,,,,,,,,,,,,,,,,,,,,,,
,,,,,,,,,,,,,,,,,,,,,,,,,
,,,,,,,,,,,,,,,,,,,,,,,,,
,,,,,,,,,,,,,,,,,,,,,,,,,
,,,,,,,,,,,,,,,,,,,,,,,,,
,,,,,,,,,,,,,,,,,,,,,,,,,
,,,,,,,,,,,,,,,,,,,,,,,,,
,,,,,,,,,,,,,,,,,,,,,,,,,
,,,,,,,,,,,,,,,,,,,,,,,,,
,,,,,,,,,,,,,,,,,,,,,,,,,
,,,,,,,,,,,,,,,,,,,,,,,,,
,,,,,,,,,,,,,,,,,,,,,,,,,
,,,,,,,,,,,,,,,,,,,,,,,,,
,,,,,,,,,,,,,,,,,,,,,,,,,
,,,,,,,,,,,,,,,,,,,,,,,,,
,,,,,,,,,,,,,,,,,,,,,,,,,
,,,,,,,,,,,,,,,,,,,,,,,,,
,,,,,,,,,,,,,,,,,,,,,,,,,
,,,,,,,,,,,,,,,,,,,,,,,,,
,,,,,,,,,,,,,,,,,,,,,,,,,
,,,,,,,,,,,,,,,,,,,,,,,,,
,,,,,,,,,,,,,,,,,,,,,,,,,
,,,,,,,,,,,,,,,,,,,,,,,,,
,,,,,,,,,,,,,,,,,,,,,,,,,
,,,,,,,,,,,,,,,,,,,,,,,,,
,,,,,,,,,,,,,,,,,,,,,,,,,
,,,,,,,,,,,,,,,,,,,,,,,,,
,,,,,,,,,,,,,,,,,,,,,,,,,
,,,,,,,,,,,,,,,,,,,,,,,,,
,,,,,,,,,,,,,,,,,,,,,,,,,
,,,,,,,,,,,,,,,,,,,,,,,,,
,,,,,,,,,,,,,,,,,,,,,,,,,
,,,,,,,,,,,,,,,,,,,,,,,,,
,,,,,,,,,,,,,,,,,,,,,,,,,
,,,,,,,,,,,,,,,,,,,,,,,,,
,,,,,,,,,,,,,,,,,,,,,,,,,
,,,,,,,,,,,,,,,,,,,,,,,,,
,,,,,,,,,,,,,,,,,,,,,,,,,
,,,,,,,,,,,,,,,,,,,,,,,,,
,,,,,,,,,,,,,,,,,,,,,,,,,
,,,,,,,,,,,,,,,,,,,,,,,,,
,,,,,,,,,,,,,,,,,,,,,,,,,
,,,,,,,,,,,,,,,,,,,,,,,,,
,,,,,,,,,,,,,,,,,,,,,,,,,
,,,,,,,,,,,,,,,,,,,,,,,,,
,,,,,,,,,,,,,,,,,,,,,,,,,
,,,,,,,,,,,,,,,,,,,,,,,,,
,,,,,,,,,,,,,,,,,,,,,,,,,
,,,,,,,,,,,,,,,,,,,,,,,,,
,,,,,,,,,,,,,,,,,,,,,,,,,
,,,,,,,,,,,,,,,,,,,,,,,,,
,,,,,,,,,,,,,,,,,,,,,,,,,
,,,,,,,,,,,,,,,,,,,,,,,,,
,,,,,,,,,,,,,,,,,,,,,,,,,
,,,,,,,,,,,,,,,,,,,,,,,,,
,,,,,,,,,,,,,,,,,,,,,,,,,
,,,,,,,,,,,,,,,,,,,,,,,,,
,,,,,,,,,,,,,,,,,,,,,,,,,
,,,,,,,,,,,,,,,,,,,,,,,,,
,,,,,,,,,,,,,,,,,,,,,,,,,
,,,,,,,,,,,,,,,,,,,,,,,,,
,,,,,,,,,,,,,,,,,,,,,,,,,
,,,,,,,,,,,,,,,,,,,,,,,,,
,,,,,,,,,,,,,,,,,,,,,,,,,
,,,,,,,,,,,,,,,,,,,,,,,,,
,,,,,,,,,,,,,,,,,,,,,,,,,
,,,,,,,,,,,,,,,,,,,,,,,,,
,,,,,,,,,,,,,,,,,,,,,,,,,
,,,,,,,,,,,,,,,,,,,,,,,,,
,,,,,,,,,,,,,,,,,,,,,,,,,
,,,,,,,,,,,,,,,,,,,,,,,,,
,,,,,,,,,,,,,,,,,,,,,,,,,
,,,,,,,,,,,,,,,,,,,,,,,,,
,,,,,,,,,,,,,,,,,,,,,,,,,
,,,,,,,,,,,,,,,,,,,,,,,,,
,,,,,,,,,,,,,,,,,,,,,,,,,
,,,,,,,,,,,,,,,,,,,,,,,,,
,,,,,,,,,,,,,,,,,,,,,,,,,
,,,,,,,,,,,,,,,,,,,,,,,,,
,,,,,,,,,,,,,,,,,,,,,,,,,
,,,,,,,,,,,,,,,,,,,,,,,,,
,,,,,,,,,,,,,,,,,,,,,,,,,
,,,,,,,,,,,,,,,,,,,,,,,,,
,,,,,,,,,,,,,,,,,,,,,,,,,
,,,,,,,,,,,,,,,,,,,,,,,,,
,,,,,,,,,,,,,,,,,,,,,,,,,
,,,,,,,,,,,,,,,,,,,,,,,,,
,,,,,,,,,,,,,,,,,,,,,,,,,
,,,,,,,,,,,,,,,,,,,,,,,,,
,,,,,,,,,,,,,,,,,,,,,,,,,
,,,,,,,,,,,,,,,,,,,,,,,,,
,,,,,,,,,,,,,,,,,,,,,,,,,
,,,,,,,,,,,,,,,,,,,,,,,,,
,,,,,,,,,,,,,,,,,,,,,,,,,
,,,,,,,,,,,,,,,,,,,,,,,,,
,,,,,,,,,,,,,,,,,,,,,,,,,
,,,,,,,,,,,,,,,,,,,,,,,,,
,,,,,,,,,,,,,,,,,,,,,,,,,
,,,,,,,,,,,,,,,,,,,,,,,,,
,,,,,,,,,,,,,,,,,,,,,,,,,
,,,,,,,,,,,,,,,,,,,,,,,,,
,,,,,,,,,,,,,,,,,,,,,,,,,
,,,,,,,,,,,,,,,,,,,,,,,,,
,,,,,,,,,,,,,,,,,,,,,,,,,
,,,,,,,,,,,,,,,,,,,,,,,,,
,,,,,,,,,,,,,,,,,,,,,,,,,
,,,,,,,,,,,,,,,,,,,,,,,,,
,,,,,,,,,,,,,,,,,,,,,,,,,
,,,,,,,,,,,,,,,,,,,,,,,,,
,,,,,,,,,,,,,,,,,,,,,,,,,
,,,,,,,,,,,,,,,,,,,,,,,,,
,,,,,,,,,,,,,,,,,,,,,,,,,
,,,,,,,,,,,,,,,,,,,,,,,,,
,,,,,,,,,,,,,,,,,,,,,,,,,
,,,,,,,,,,,,,,,,,,,,,,,,,
,,,,,,,,,,,,,,,,,,,,,,,,,
,,,,,,,,,,,,,,,,,,,,,,,,,
,,,,,,,,,,,,,,,,,,,,,,,,,
,,,,,,,,,,,,,,,,,,,,,,,,,
,,,,,,,,,,,,,,,,,,,,,,,,,
,,,,,,,,,,,,,,,,,,,,,,,,,
,,,,,,,,,,,,,,,,,,,,,,,,,
,,,,,,,,,,,,,,,,,,,,,,,,,
,,,,,,,,,,,,,,,,,,,,,,,,,
,,,,,,,,,,,,,,,,,,,,,,,,,
,,,,,,,,,,,,,,,,,,,,,,,,,
,,,,,,,,,,,,,,,,,,,,,,,,,
,,,,,,,,,,,,,,,,,,,,,,,,,
,,,,,,,,,,,,,,,,,,,,,,,,,
,,,,,,,,,,,,,,,,,,,,,,,,,
,,,,,,,,,,,,,,,,,,,,,,,,,
,,,,,,,,,,,,,,,,,,,,,,,,,
,,,,,,,,,,,,,,,,,,,,,,,,,
,,,,,,,,,,,,,,,,,,,,,,,,,
,,,,,,,,,,,,,,,,,,,,,,,,,
,,,,,,,,,,,,,,,,,,,,,,,,,
,,,,,,,,,,,,,,,,,,,,,,,,,
,,,,,,,,,,,,,,,,,,,,,,,,,
,,,,,,,,,,,,,,,,,,,,,,,,,
,,,,,,,,,,,,,,,,,,,,,,,,,
,,,,,,,,,,,,,,,,,,,,,,,,,
,,,,,,,,,,,,,,,,,,,,,,,,,
,,,,,,,,,,,,,,,,,,,,,,,,,
,,,,,,,,,,,,,,,,,,,,,,,,,
,,,,,,,,,,,,,,,,,,,,,,,,,
,,,,,,,,,,,,,,,,,,,,,,,,,
,,,,,,,,,,,,,,,,,,,,,,,,,
,,,,,,,,,,,,,,,,,,,,,,,,,
,,,,,,,,,,,,,,,,,,,,,,,,,
,,,,,,,,,,,,,,,,,,,,,,,,,
,,,,,,,,,,,,,,,,,,,,,,,,,
,,,,,,,,,,,,,,,,,,,,,,,,,
,,,,,,,,,,,,,,,,,,,,,,,,,
,,,,,,,,,,,,,,,,,,,,,,,,,
,,,,,,,,,,,,,,,,,,,,,,,,,
,,,,,,,,,,,,,,,,,,,,,,,,,
,,,,,,,,,,,,,,,,,,,,,,,,,
,,,,,,,,,,,,,,,,,,,,,,,,,
,,,,,,,,,,,,,,,,,,,,,,,,,
,,,,,,,,,,,,,,,,,,,,,,,,,
,,,,,,,,,,,,,,,,,,,,,,,,,
,,,,,,,,,,,,,,,,,,,,,,,,,
,,,,,,,,,,,,,,,,,,,,,,,,,
,,,,,,,,,,,,,,,,,,,,,,,,,
,,,,,,,,,,,,,,,,,,,,,,,,,
,,,,,,,,,,,,,,,,,,,,,,,,,
,,,,,,,,,,,,,,,,,,,,,,,,,
,,,,,,,,,,,,,,,,,,,,,,,,,
,,,,,,,,,,,,,,,,,,,,,,,,,
,,,,,,,,,,,,,,,,,,,,,,,,,
,,,,,,,,,,,,,,,,,,,,,,,,,
,,,,,,,,,,,,,,,,,,,,,,,,,
,,,,,,,,,,,,,,,,,,,,,,,,,
,,,,,,,,,,,,,,,,,,,,,,,,,
,,,,,,,,,,,,,,,,,,,,,,,,,
,,,,,,,,,,,,,,,,,,,,,,,,,
,,,,,,,,,,,,,,,,,,,,,,,,,
,,,,,,,,,,,,,,,,,,,,,,,,,
,,,,,,,,,,,,,,,,,,,,,,,,,
,,,,,,,,,,,,,,,,,,,,,,,,,
,,,,,,,,,,,,,,,,,,,,,,,,,
,,,,,,,,,,,,,,,,,,,,,,,,,
,,,,,,,,,,,,,,,,,,,,,,,,,
,,,,,,,,,,,,,,,,,,,,,,,,,
,,,,,,,,,,,,,,,,,,,,,,,,,
,,,,,,,,,,,,,,,,,,,,,,,,,
,,,,,,,,,,,,,,,,,,,,,,,,,
,,,,,,,,,,,,,,,,,,,,,,,,,
,,,,,,,,,,,,,,,,,,,,,,,,,
,,,,,,,,,,,,,,,,,,,,,,,,,
,,,,,,,,,,,,,,,,,,,,,,,,,
,,,,,,,,,,,,,,,,,,,,,,,,,
,,,,,,,,,,,,,,,,,,,,,,,,,
,,,,,,,,,,,,,,,,,,,,,,,,,
,,,,,,,,,,,,,,,,,,,,,,,,,
,,,,,,,,,,,,,,,,,,,,,,,,,
,,,,,,,,,,,,,,,,,,,,,,,,,
,,,,,,,,,,,,,,,,,,,,,,,,,
,,,,,,,,,,,,,,,,,,,,,,,,,
,,,,,,,,,,,,,,,,,,,,,,,,,
,,,,,,,,,,,,,,,,,,,,,,,,,
,,,,,,,,,,,,,,,,,,,,,,,,,
,,,,,,,,,,,,,,,,,,,,,,,,,
,,,,,,,,,,,,,,,,,,,,,,,,,
,,,,,,,,,,,,,,,,,,,,,,,,,
,,,,,,,,,,,,,,,,,,,,,,,,,
,,,,,,,,,,,,,,,,,,,,,,,,,
,,,,,,,,,,,,,,,,,,,,,,,,,
,,,,,,,,,,,,,,,,,,,,,,,,,
,,,,,,,,,,,,,,,,,,,,,,,,,
,,,,,,,,,,,,,,,,,,,,,,,,,
,,,,,,,,,,,,,,,,,,,,,,,,,
,,,,,,,,,,,,,,,,,,,,,,,,,
,,,,,,,,,,,,,,,,,,,,,,,,,
,,,,,,,,,,,,,,,,,,,,,,,,,
,,,,,,,,,,,,,,,,,,,,,,,,,
,,,,,,,,,,,,,,,,,,,,,,,,,
,,,,,,,,,,,,,,,,,,,,,,,,,
,,,,,,,,,,,,,,,,,,,,,,,,,
,,,,,,,,,,,,,,,,,,,,,,,,,
,,,,,,,,,,,,,,,,,,,,,,,,,
,,,,,,,,,,,,,,,,,,,,,,,,,
,,,,,,,,,,,,,,,,,,,,,,,,,
,,,,,,,,,,,,,,,,,,,,,,,,,
,,,,,,,,,,,,,,,,,,,,,,,,,
,,,,,,,,,,,,,,,,,,,,,,,,,
,,,,,,,,,,,,,,,,,,,,,,,,,
,,,,,,,,,,,,,,,,,,,,,,,,,
,,,,,,,,,,,,,,,,,,,,,,,,,
,,,,,,,,,,,,,,,,,,,,,,,,,
,,,,,,,,,,,,,,,,,,,,,,,,,
,,,,,,,,,,,,,,,,,,,,,,,,,
,,,,,,,,,,,,,,,,,,,,,,,,,
,,,,,,,,,,,,,,,,,,,,,,,,,
,,,,,,,,,,,,,,,,,,,,,,,,,
,,,,,,,,,,,,,,,,,,,,,,,,,
,,,,,,,,,,,,,,,,,,,,,,,,,
,,,,,,,,,,,,,,,,,,,,,,,,,
,,,,,,,,,,,,,,,,,,,,,,,,,
,,,,,,,,,,,,,,,,,,,,,,,,,
,,,,,,,,,,,,,,,,,,,,,,,,,
,,,,,,,,,,,,,,,,,,,,,,,,,
,,,,,,,,,,,,,,,,,,,,,,,,,
,,,,,,,,,,,,,,,,,,,,,,,,,
,,,,,,,,,,,,,,,,,,,,,,,,,
,,,,,,,,,,,,,,,,,,,,,,,,,
,,,,,,,,,,,,,,,,,,,,,,,,,
,,,,,,,,,,,,,,,,,,,,,,,,,
,,,,,,,,,,,,,,,,,,,,,,,,,
,,,,,,,,,,,,,,,,,,,,,,,,,
,,,,,,,,,,,,,,,,,,,,,,,,,
,,,,,,,,,,,,,,,,,,,,,,,,,
,,,,,,,,,,,,,,,,,,,,,,,,,
,,,,,,,,,,,,,,,,,,,,,,,,,
,,,,,,,,,,,,,,,,,,,,,,,,,
,,,,,,,,,,,,,,,,,,,,,,,,,
,,,,,,,,,,,,,,,,,,,,,,,,,
,,,,,,,,,,,,,,,,,,,,,,,,,
,,,,,,,,,,,,,,,,,,,,,,,,,
,,,,,,,,,,,,,,,,,,,,,,,,,
,,,,,,,,,,,,,,,,,,,,,,,,,
,,,,,,,,,,,,,,,,,,,,,,,,,
,,,,,,,,,,,,,,,,,,,,,,,,,
,,,,,,,,,,,,,,,,,,,,,,,,,
,,,,,,,,,,,,,,,,,,,,,,,,,
,,,,,,,,,,,,,,,,,,,,,,,,,
,,,,,,,,,,,,,,,,,,,,,,,,,
,,,,,,,,,,,,,,,,,,,,,,,,,
,,,,,,,,,,,,,,,,,,,,,,,,,
,,,,,,,,,,,,,,,,,,,,,,,,,
,,,,,,,,,,,,,,,,,,,,,,,,,
,,,,,,,,,,,,,,,,,,,,,,,,,
,,,,,,,,,,,,,,,,,,,,,,,,,
,,,,,,,,,,,,,,,,,,,,,,,,,
,,,,,,,,,,,,,,,,,,,,,,,,,
,,,,,,,,,,,,,,,,,,,,,,,,,
,,,,,,,,,,,,,,,,,,,,,,,,,
,,,,,,,,,,,,,,,,,,,,,,,,,
,,,,,,,,,,,,,,,,,,,,,,,,,
,,,,,,,,,,,,,,,,,,,,,,,,,
,,,,,,,,,,,,,,,,,,,,,,,,,
,,,,,,,,,,,,,,,,,,,,,,,,,
,,,,,,,,,,,,,,,,,,,,,,,,,
,,,,,,,,,,,,,,,,,,,,,,,,,
,,,,,,,,,,,,,,,,,,,,,,,,,
,,,,,,,,,,,,,,,,,,,,,,,,,
,,,,,,,,,,,,,,,,,,,,,,,,,
,,,,,,,,,,,,,,,,,,,,,,,,,
,,,,,,,,,,,,,,,,,,,,,,,,,
,,,,,,,,,,,,,,,,,,,,,,,,,
,,,,,,,,,,,,,,,,,,,,,,,,,
,,,,,,,,,,,,,,,,,,,,,,,,,
,,,,,,,,,,,,,,,,,,,,,,,,,
,,,,,,,,,,,,,,,,,,,,,,,,,
,,,,,,,,,,,,,,,,,,,,,,,,,
,,,,,,,,,,,,,,,,,,,,,,,,,
,,,,,,,,,,,,,,,,,,,,,,,,,
,,,,,,,,,,,,,,,,,,,,,,,,,
,,,,,,,,,,,,,,,,,,,,,,,,,
,,,,,,,,,,,,,,,,,,,,,,,,,
,,,,,,,,,,,,,,,,,,,,,,,,,
,,,,,,,,,,,,,,,,,,,,,,,,,
,,,,,,,,,,,,,,,,,,,,,,,,,
,,,,,,,,,,,,,,,,,,,,,,,,,
,,,,,,,,,,,,,,,,,,,,,,,,,
,,,,,,,,,,,,,,,,,,,,,,,,,
,,,,,,,,,,,,,,,,,,,,,,,,,
,,,,,,,,,,,,,,,,,,,,,,,,,
,,,,,,,,,,,,,,,,,,,,,,,,,
,,,,,,,,,,,,,,,,,,,,,,,,,
,,,,,,,,,,,,,,,,,,,,,,,,,
,,,,,,,,,,,,,,,,,,,,,,,,,
,,,,,,,,,,,,,,,,,,,,,,,,,
,,,,,,,,,,,,,,,,,,,,,,,,,
,,,,,,,,,,,,,,,,,,,,,,,,,
,,,,,,,,,,,,,,,,,,,,,,,,,
,,,,,,,,,,,,,,,,,,,,,,,,,
,,,,,,,,,,,,,,,,,,,,,,,,,
,,,,,,,,,,,,,,,,,,,,,,,,,
,,,,,,,,,,,,,,,,,,,,,,,,,
,,,,,,,,,,,,,,,,,,,,,,,,,
,,,,,,,,,,,,,,,,,,,,,,,,,
,,,,,,,,,,,,,,,,,,,,,,,,,
,,,,,,,,,,,,,,,,,,,,,,,,,
,,,,,,,,,,,,,,,,,,,,,,,,,
,,,,,,,,,,,,,,,,,,,,,,,,,
,,,,,,,,,,,,,,,,,,,,,,,,,
,,,,,,,,,,,,,,,,,,,,,,,,,
,,,,,,,,,,,,,,,,,,,,,,,,,
,,,,,,,,,,,,,,,,,,,,,,,,,
,,,,,,,,,,,,,,,,,,,,,,,,,
,,,,,,,,,,,,,,,,,,,,,,,,,
,,,,,,,,,,,,,,,,,,,,,,,,,
,,,,,,,,,,,,,,,,,,,,,,,,,
,,,,,,,,,,,,,,,,,,,,,,,,,
,,,,,,,,,,,,,,,,,,,,,,,,,
,,,,,,,,,,,,,,,,,,,,,,,,,
,,,,,,,,,,,,,,,,,,,,,,,,,
,,,,,,,,,,,,,,,,,,,,,,,,,
